normed	toponymName	adminName1	countryName	geo	geonameId	fclName
A La Haye	The Hague	South Holland	Netherlands	[52.07667,4.29861]	2747373	city, village,...
Aberdeen	Aberdeen	Scotland	United Kingdom	[57.14369,-2.09814]	2657832	city, village,...
Adelaide	Adelaide	South Australia	Australia	[-34.92866,138.59863]	2078025	city, village,...
Akron, Ohio	Akron	Ohio	United States	[41.08144,-81.51901]	5145476	city, village,...
Albuquerque	Albuquerque	New Mexico	United States	[35.08449,-106.65114]	5454711	city, village,...
Alexandria, Virginia	Alexandria	Virginia	United States	[38.80484,-77.04692]	4744091	city, village,...
Allahabad	Allahābād	Uttar Pradesh	India	[25.44894,81.83329]	1278994	city, village,...
Allen, Texas	Allen	Texas	United States	[33.10317,-96.67055]	4670300	city, village,...
Allentown, PA	Allentown	Pennsylvania	United States	[40.60843,-75.49018]	5178127	city, village,...
Altona	Altona	Hamburg	Germany	[53.55,9.93333]	2911296	city, village,...
American Fork, Utah	American Fork	Utah	United States	[40.3769,-111.79576]	5844096	city, village,...
Ames	Ames	Iowa	United States	[42.03471,-93.61994]	4846834	city, village,...
Amherst, Massachusetts	North Amherst	Massachusetts	United States	[42.41037,-72.53092]	4945497	city, village,...
Amherst, New York	Amherst	New York	United States	[42.97839,-78.79976]	5107129	city, village,...
Amiens	Amiens	Picardie	France	[49.9,2.3]	3037854	city, village,...
Anderson, Indiana	Anderson	Indiana	United States	[40.10532,-85.68025]	4917592	city, village,...
Andover	Andover	England	United Kingdom	[51.20828,-1.48246]	2657324	city, village,...
Angers	Angers	Pays de la Loire	France	[47.46667,-0.55]	3037656	city, village,...
Ann Arbor, Michigan	Ann Arbor	Michigan	United States	[42.27756,-83.74088]	4984247	city, village,...
Annapolis, Maryland	Annapolis	Maryland	United States	[38.97845,-76.49218]	4347242	city, village,...
Anvers	Antwerpen	Flemish Region	Belgium	[51.21989,4.40346]	2803138	city, village,...
Arras	Arras	Nord-Pas-de-Calais	France	[50.29301,2.78186]	3036784	city, village,...
Asheville, North Carolina	Asheville	North Carolina	United States	[35.60095,-82.55402]	4453066	city, village,...
Ashland, Ohio	Ashland County Airport	Ohio	United States	[40.90242,-82.25673]	5146063	spot, building, farm
Athens	Athens	Attica	Greece	[37.97945,23.71622]	264371	city, village,...
Atlanta, GA	Atlanta	Georgia	United States	[33.749,-84.38798]	4180439	city, village,...
Auburn, New York	Auburn	New York	United States	[42.93173,-76.56605]	5107505	city, village,...
Auckland	Auckland	Auckland	New Zealand	[-36.86667,174.76667]	2193733	city, village,...
Augsburg	Augsburg	Bavaria	Germany	[48.37154,10.89851]	2954172	city, village,...
Augusta, Georgia	Augusta	Georgia	United States	[33.47097,-81.97484]	4180531	city, village,...
Augusta, Maine	Augusta	Maine	United States	[44.31062,-69.77949]	4957003	city, village,...
Austin, Texas	Austin	Texas	United States	[30.26715,-97.74306]	4671654	city, village,...
Australia	Commonwealth of Australia		Australia	[-25,135]	2077456	country, state, region,...
Avignon	Avignon	Provence-Alpes-Côte d'Azur	France	[43.94834,4.80892]	3035681	city, village,...
Avon, Massachusetts	Avon	Massachusetts	United States	[42.13066,-71.04116]	4929476	city, village,...
Baile	Dublin	Leinster	Ireland	[53.33306,-6.24889]	2964574	city, village,...
Bamberg	Bamberg	Bavaria	Germany	[49.89873,10.90067]	2952984	city, village,...
Bar-le-Duc	Bar-le-Duc	Lorraine	France	[48.78333,5.16667]	3034911	city, village,...
Bari	Bari	Apulia	Italy	[41.11148,16.8554]	3182351	city, village,...
Basel	Basel	Basel-City	Switzerland	[47.55839,7.57327]	2661604	city, village,...
Bassano	San Bassano	Lombardy	Italy	[45.24378,9.80954]	3168558	city, village,...
Bath	Bath	England	United Kingdom	[51.3751,-2.36172]	2656173	city, village,...
Baton Rouge	Baton Rouge	Louisiana	United States	[30.45075,-91.15455]	4315588	city, village,...
Battle Creek, Michigan	Battle Creek	Michigan	United States	[42.32115,-85.17971]	4985153	city, village,...
Beijing	Beijing	Beijing	China	[39.9075,116.39723]	1816670	city, village,...
Belfast	Belfast	N Ireland	United Kingdom	[54.58333,-5.93333]	2655984	city, village,...
Belmont, California	Belmont	California	United States	[37.52021,-122.2758]	5327455	city, village,...
Benares	Varanasi	Uttar Pradesh	India	[25.31668,83.01041]	1253405	city, village,...
Beograd	Belgrade	Central Serbia	Serbia	[44.80401,20.46513]	792680	city, village,...
Bergamo	Bergamo	Lombardy	Italy	[45.69601,9.66721]	3182164	city, village,...
Berkeley Heights, New Jersey	Berkeley Heights	New Jersey	United States	[40.68343,-74.44265]	5095617	city, village,...
Bern	Bern	Bern	Switzerland	[46.94809,7.44744]	2661552	city, village,...
Berne	Bern	Bern	Switzerland	[46.94809,7.44744]	2661552	city, village,...
Berolinum	Berlin	Berlin	Germany	[52.52437,13.41053]	2950159	city, village,...
Bethesda, MD	Bethesda	Maryland	United States	[38.98067,-77.10026]	4348599	city, village,...
Bethlehem, Pennsylvania	Bethlehem	Pennsylvania	United States	[40.62593,-75.37046]	5180225	city, village,...
Beverly Hills, California	Beverly Hills	California	United States	[34.07362,-118.40036]	5328041	city, village,...
Bielefeld	Bielefeld	North Rhine-Westphalia	Germany	[52.03333,8.53333]	2949186	city, village,...
Billings, Montana	Billings	Montana	United States	[45.78329,-108.50069]	5640350	city, village,...
Binghamton, New York	Binghamton	New York	United States	[42.09869,-75.91797]	5109177	city, village,...
Birmingham	Birmingham	England	United Kingdom	[52.48142,-1.89983]	2655603	city, village,...
Birmingham, Alabama	Birmingham	Alabama	United States	[33.52066,-86.80249]	4049979	city, village,...
Bloomington	Bloomington	Indiana	United States	[39.16533,-86.52639]	4254679	city, village,...
Bloomington, Illinois	Bloomington	Illinois	United States	[40.4842,-88.99369]	4885164	city, village,...
Blue Ridge Summit, PA	Blue Ridge Summit	Pennsylvania	United States	[39.72426,-77.47138]	4556668	city, village,...
Boca Raton, FL	Boca Raton	Florida	United States	[26.35869,-80.0831]	4148411	city, village,...
Boise, Idaho	Boise	Idaho	United States	[43.6135,-116.20345]	5586437	city, village,...
Bombay	Mumbai	Maharashtra	India	[19.07283,72.88261]	1275339	city, village,...
Bonn	Bonn	North Rhine-Westphalia	Germany	[50.73438,7.09549]	2946447	city, village,...
Bordeaux	Bordeaux	Aquitaine	France	[44.84044,-0.5805]	3031582	city, village,...
Bothell, Western Australia	Unknown	Unknown	Unknown	Unknown	None	Unknown
Boulder, Colorado	Boulder	Colorado	United States	[40.01499,-105.27055]	5574991	city, village,...
Bozeman, Montana	Bozeman	Montana	United States	[45.67965,-111.03856]	5641727	city, village,...
Br	Fortaleza	Ceará	Brazil	[-3.71722,-38.54306]	3399415	city, village,...
Brattleboro, Vermont	Brattleboro	Vermont	United States	[42.85092,-72.55787]	5234141	city, village,...
Braunschweig	Braunschweig	Lower Saxony	Germany	[52.26594,10.52673]	2945024	city, village,...
Bremen	Bremen	Bremen	Germany	[53.07516,8.80777]	2944388	city, village,...
Breslau	Wrocław	Lower Silesian Voivodeship	Poland	[51.1,17.03333]	3081368	city, village,...
Bridgeport, Connecticut	Bridgeport	Connecticut	United States	[41.16704,-73.20483]	5282804	city, village,...
Brighton	Brighton	England	United Kingdom	[50.82838,-0.13947]	2654710	city, village,...
Brisbane	Brisbane	Queensland	Australia	[-27.46794,153.02809]	2174003	city, village,...
Bristol	Bristol	England	United Kingdom	[51.45523,-2.59665]	2654675	city, village,...
Brookfield, Connecticut	Brookfield	Connecticut	United States	[41.48259,-73.40957]	5282901	city, village,...
Brookline, Massachusetts	Brookline	Massachusetts	United States	[42.33176,-71.12116]	4931482	city, village,...
Brooklyn, New York	Brooklyn	New York	United States	[40.6501,-73.94958]	5110302	city, village,...
Bruges	Brugge	Flemish Region	Belgium	[51.20892,3.22424]	2800931	city, village,...
Brunswick, Maine	Brunswick	Maine	United States	[43.91452,-69.96533]	4959473	city, village,...
Brussels	Brussels	Brussels Capital	Belgium	[50.85045,4.34878]	2800866	city, village,...
Buenos Ayres	Buenos Aires	Buenos Aires F.D.	Argentina	[-34.61315,-58.37723]	3435910	city, village,...
Burlington, Vermont	Burlington	Vermont	United States	[44.47588,-73.21207]	5234372	city, village,...
Butte, Montana	Butte	Montana	United States	[46.00382,-112.53474]	5642934	city, village,...
Caen	Caen	Lower Normandy	France	[49.18585,-0.35912]	3029241	city, village,...
Cairo	Cairo	Al Qāhirah	Egypt	[30.06263,31.24967]	360630	city, village,...
Caldwell, Idaho	Caldwell	Idaho	United States	[43.66294,-116.68736]	5587698	city, village,...
Cambridge, Massachusetts	Cambridge	Massachusetts	United States	[42.3751,-71.10561]	4931972	city, village,...
Camden, Maine	Camden	Maine	United States	[44.2098,-69.06476]	4959908	city, village,...
Camden, New Jersey	Camden	New Jersey	United States	[39.92595,-75.11962]	4501018	city, village,...
arsha	Arsha	Nizjnij Novgorod	Russia	[57.74972,47.45013]	826313	city, village,...
Albany	Albany	New York	United States	[42.65258,-73.75623]	5106834	city, village,...
Boston	Boston	Massachusetts	United States	[42.35843,-71.05977]	4930956	city, village,...
Buffalo	Bhisho	Province of Eastern Cape	South Africa	[-32.84721,27.44218]	1019330	city, village,...
Cambridge	Cambridge	England	United Kingdom	[52.2,0.11667]	2653941	city, village,...
Canterbury	Canterbury	Canterbury	New Zealand	[-43.5,171.5]	2192628	country, state, region,...
Carmel, New York	Lake Carmel	New York	United States	[41.45862,-73.66497]	5111564	stream, lake, ...
Clinton, New York	Clinton County	New York	United States	[44.74623,-73.67817]	5112977	country, state, region,...
Dansville, New York	Dansville Municipal Airport	New York	United States	[42.5709,-77.7125]	5114493	spot, building, farm
Derby	Derby	England	United Kingdom	[52.92277,-1.47663]	2651347	city, village,...
Durham Eng	Durham	England	United Kingdom	[54.77676,-1.57566]	2650628	city, village,...
East Aurora, New York	East Aurora	New York	United States	[42.76784,-78.61336]	5115704	city, village,...
Exeter	Exeter	England	United Kingdom	[50.7236,-3.52751]	2649808	city, village,...
Freeport, New York	Freeport	New York	United States	[40.6576,-73.58318]	5117949	city, village,...
Garden City Park, New York	Garden City Park	New York	United States	[40.74093,-73.66263]	5118228	city, village,...
Garden City, New York	Garden City	New York	United States	[40.72677,-73.6343]	5118226	city, village,...
Geneva, New York	Geneva	New York	United States	[42.86896,-76.97774]	5118398	city, village,...
Gloucester	Gloucester	England	United Kingdom	[51.86568,-2.2431]	2648404	city, village,...
Harmondsworth	Harmondsworth	England	United Kingdom	[51.48836,-0.47757]	6951076	city, village,...
Hauppauge, New York	Hauppauge	New York	United States	[40.82565,-73.20261]	5120228	city, village,...
Hertford	Hertford County	North Carolina	United States	[36.35863,-76.98066]	4470729	country, state, region,...
Hull	Hull	England	United Kingdom	[53.7446,-0.33525]	2645425	city, village,...
Ipswich	Ipswich	England	United Kingdom	[52.05917,1.15545]	2646057	city, village,...
Ithaca, New York	Ithaca Tompkins Regional Airport	New York	United States	[42.49083,-76.45833]	6298471	spot, building, farm
Kendal	Kabupaten Kendal	Central Java	Indonesia	[-7.0256,110.1685]	6745680	country, state, region,...
Leeds	Leeds	England	United Kingdom	[53.79648,-1.54785]	2644688	city, village,...
Leicester	Leicester	England	United Kingdom	[52.6386,-1.13169]	2644668	city, village,...
Lincoln	Lincoln	Nebraska	United States	[40.8,-96.66696]	5072006	city, village,...
Liverpool	Liverpool	England	United Kingdom	[53.41058,-2.97794]	2644210	city, village,...
Lond	Lond Pharrak	Balochistān	Pakistan	[28.75082,64.53184]	1345791	mountain,hill,rock,... 
London	London	England	United Kingdom	[51.50853,-0.12574]	2643743	city, village,...
Londres	London	England	United Kingdom	[51.50853,-0.12574]	2643743	city, village,...
Manchester	Manchester	England	United Kingdom	[53.48095,-2.23743]	2643123	city, village,...
New York	New York City	New York	United States	[40.71427,-74.00597]	5128581	city, village,...
Newcastle	Newcastle	New South Wales	Australia	[-32.92715,151.77647]	2155472	city, village,...
Newcastle upon Tyne	Newcastle upon Tyne	England	United Kingdom	[54.97328,-1.61396]	2641673	city, village,...
Newcastle-upon-Tyne	Newcastle upon Tyne	England	United Kingdom	[54.97328,-1.61396]	2641673	city, village,...
Norwich	Norwich	England	United Kingdom	[52.62783,1.29834]	2641181	city, village,...
Nottingham	Nottingham	England	United Kingdom	[52.9536,-1.15047]	2641170	city, village,...
Oxford	Oxford	England	United Kingdom	[51.75222,-1.25596]	2640729	city, village,...
Philadelphia	Philadelphia	Pennsylvania	United States	[39.95233,-75.16379]	4560349	city, village,...
Plymouth	Plymouth	Saint Anthony	Montserrat	[16.70555,-62.21292]	3578069	city, village,...
Richmond	Richmond	Virginia	United States	[37.55376,-77.46026]	4781708	city, village,...
Salisbury	Salisbury	Saint Joseph	Dominica	[15.43333,-61.45]	3575612	city, village,...
Sheffield	Sheffield	England	United Kingdom	[53.38297,-1.4659]	2638077	city, village,...
Shrewsbury	Shrewsbury	England	United Kingdom	[52.71009,-2.75208]	2637891	city, village,...
Sutton	Sutton	England	United Kingdom	[51.35,-0.2]	2636503	city, village,...
Toronto	Toronto	Ontario	Canada	[43.70011,-79.4163]	6167865	city, village,...
Westminster	Westminster	Colorado	United States	[39.83665,-105.0372]	5443910	city, village,...
Winchester	Winchester	England	United Kingdom	[51.06513,-1.3187]	2633858	city, village,...
York	New York City	New York	United States	[40.71427,-74.00597]	5128581	city, village,...
Bruxelles	Brussels	Brussels Capital	Belgium	[50.85045,4.34878]	2800866	city, village,...
Chartres	Chartres	Centre	France	[48.44685,1.48925]	3026467	city, village,...
Clermont-Ferrand	Clermont-Ferrand	Auvergne	France	[45.77966,3.08628]	3024635	city, village,...
Dijon	Dijon	Bourgogne	France	[47.31667,5.01667]	3021372	city, village,...
France	Republic of France		France	[46,2]	3017382	country, state, region,...
Grenoble	Grenoble	Rhône-Alpes	France	[45.16667,5.71667]	3014728	city, village,...
Lille	Lille	Nord-Pas-de-Calais	France	[50.63297,3.05858]	2998324	city, village,...
Limoges	Limoges	Limousin	France	[45.83153,1.25781]	2998286	city, village,...
Lyon	Lyon	Rhône-Alpes	France	[45.74846,4.84671]	2996944	city, village,...
Marseille	Marseille	Provence-Alpes-Côte d'Azur	France	[43.29695,5.38107]	2995469	city, village,...
Mineola, New York	Mineola	New York	United States	[40.74927,-73.64068]	5127134	city, village,...
Montpellier	Montpellier	Languedoc-Roussillon	France	[43.61092,3.87723]	2992166	city, village,...
Mount Vernon, New York	Mount Vernon	New York	United States	[40.9126,-73.83708]	5127835	city, village,...
Nancy	Nancy	Lorraine	France	[48.68439,6.18496]	2990999	city, village,...
Nantes	Nantes	Pays de la Loire	France	[47.21725,-1.55336]	2990969	city, village,...
New Rochelle, New York	New Rochelle	New York	United States	[40.91149,-73.78235]	5128549	city, village,...
New York &	New York City	New York	United States	[40.71427,-74.00597]	5128581	city, village,...
New York & London	New York City	New York	United States	[40.71427,-74.00597]	5128581	city, village,...
New York City	New York City	New York	United States	[40.71427,-74.00597]	5128581	city, village,...
Newburgh, New York	Newburgh	New York	United States	[41.50343,-74.01042]	5128654	city, village,...
Nueva York	New York City	New York	United States	[40.71427,-74.00597]	5128581	city, village,...
Nyu York	New York City	New York	United States	[40.71427,-74.00597]	5128581	city, village,...
Nyu-York	New York City	New York	United States	[40.71427,-74.00597]	5128581	city, village,...
Orl	Orël	Orjol	Russia	[52.96508,36.07849]	515012	city, village,...
Par	Pār Naogaon	Rājshāhi	Bangladesh	[24.80418,88.94875]	1192366	city, village,...
Parigi	Paris	Île-de-France	France	[48.85341,2.3488]	2988507	city, village,...
Paris	Paris	Île-de-France	France	[48.85341,2.3488]	2988507	city, village,...
Pariz	Paris	Île-de-France	France	[48.85341,2.3488]	2988507	city, village,...
Parizh	Paris	Île-de-France	France	[48.85341,2.3488]	2988507	city, village,...
Pleasantville, New York	Pleasantville	New York	United States	[41.13287,-73.79263]	5131757	city, village,...
Poitiers	Poitiers	Poitou-Charentes	France	[46.58333,0.33333]	2986495	city, village,...
Port Washington, New York	Port Washington	New York	United States	[40.82566,-73.69819]	5132029	city, village,...
Poughkeepsie, New York	Poughkeepsie	New York	United States	[41.70037,-73.92097]	5132143	city, village,...
Reims	Reims	Champagne-Ardenne	France	[49.25,4.03333]	2984114	city, village,...
Rennes	Rennes	Brittany	France	[48.11198,-1.67429]	2983990	city, village,...
Riverdale, New York	Riverdale	New York	United States	[40.90056,-73.90639]	5133917	city, village,...
Rochester, New York	Rochester	New York	United States	[43.15478,-77.61556]	5134086	city, village,...
Roslyn, New York	Roslyn	New York	United States	[40.79982,-73.65096]	5134415	city, village,...
Scarsdale, New York	Scarsdale	New York	United States	[41.0051,-73.78458]	5136433	city, village,...
Strassburg	Strasbourg	Alsace	France	[48.58392,7.74553]	2973783	city, village,...
Syracuse, New York	Syracuse	New York	United States	[43.04812,-76.14742]	5140405	city, village,...
Tarrytown, New York	Tarrytown	New York	United States	[41.07621,-73.85875]	5140538	city, village,...
Troy, New York	Troy	New York	United States	[42.72841,-73.69179]	5141502	city, village,...
Utica, New York	Utica	New York	United States	[43.1009,-75.23266]	5142056	city, village,...
Watertown, New York	Watertown	New York	United States	[43.97478,-75.91076]	5143396	city, village,...
West Nyack, New York	West Nyack	New York	United States	[41.09649,-73.97292]	5143946	city, village,...
White Plains, New York	White Plains	New York	United States	[41.03399,-73.76291]	5144336	city, village,...
Woodbury, New York	Woodbury	New York	United States	[41.36454,-74.10598]	5144948	city, village,...
Woodstock, New York	Woodstock	New York	United States	[42.04092,-74.1182]	5145072	city, village,...
Yonkers, New York	Yonkers	New York	United States	[40.93121,-73.89875]	5145215	city, village,...
Grand Valley State University	Grand Valley State University-Pew Grand Rapids Campus	Michigan	United States	[42.96444,-85.68083]	7254978	spot, building, farm
Miami Dade College (all)	Unknown	Unknown	Unknown	Unknown	None	Unknown
Rutgers - State University of New Jersey	Rutgers University New Brunswick	New Jersey	United States	[40.49952,-74.44443]	7157350	spot, building, farm
San Diego State University	University City	California	United States	[32.85477,-117.20392]	5404814	city, village,...
University of Central Florida	University of Central Florida	Florida	United States	[28.60189,-81.20031]	4176233	spot, building, farm
Arizona State University	University of Arizona	Arizona	United States	[32.23188,-110.95347]	5318972	spot, building, farm
Broward College (all campuses)	Unknown	Unknown	Unknown	Unknown	None	Unknown
California State University Fullerton	Marriott Fullerton - By California State University	California	United States	[33.8781,-117.8824]	6481715	spot, building, farm
California State University, Northridge	California State University Northridge - Ventura County	California	United States	[34.26861,-119.27067]	5332898	spot, building, farm
Valencia College	Valencia Community College	Florida	United States	[28.30179,-81.43492]	7534140	spot, building, farm
Berlin	Berlin	Berlin	Germany	[52.52437,13.41053]	2950159	city, village,...
Chicago	Chicago	Illinois	United States	[41.85003,-87.65005]	4887398	city, village,...
Edinburgh	Edinburgh	Scotland	United Kingdom	[55.95206,-3.19648]	2650225	city, village,...
Leipzig	Leipzig	Saxony	Germany	[51.33962,12.37129]	2879139	city, village,...
Washington	Washington, D. C.	Washington, D.C.	United States	[38.89511,-77.03637]	4140963	city, village,...
A Paris	Paris	Île-de-France	France	[48.85341,2.3488]	2988507	city, village,...
Albany, New York	Albany	New York	United States	[42.65258,-73.75623]	5106834	city, village,...
Amsterdam	Amsterdam	North Holland	Netherlands	[52.37403,4.88969]	2759794	city, village,...
BASINGSTOKE	Basingstoke	England	United Kingdom	[51.26249,-1.08708]	2656192	city, village,...
Baltimore	Baltimore	Maryland	United States	[39.29038,-76.61219]	4347778	city, village,...
Baltimore, Maryland	Baltimore	Maryland	United States	[39.29038,-76.61219]	4347778	city, village,...
Barcelona	Barcelona	Catalonia	Spain	[41.38879,2.15899]	3128760	city, village,...
Berkeley	Berkeley	California	United States	[37.87159,-122.27275]	5327684	city, village,...
Berkeley, CA	Berkeley	California	United States	[37.87159,-122.27275]	5327684	city, village,...
Berkeley, California	Berkeley	California	United States	[37.87159,-122.27275]	5327684	city, village,...
Boca Raton	Boca Raton	Florida	United States	[26.35869,-80.0831]	4148411	city, village,...
Bologna	Bologna	Emilia-Romagna	Italy	[44.49381,11.33875]	3181928	city, village,...
Boston, MA	Boston	Massachusetts	United States	[42.35843,-71.05977]	4930956	city, village,...
Boston, Massachusetts	Boston	Massachusetts	United States	[42.35843,-71.05977]	4930956	city, village,...
Budapest	Budapest	Budapest	Hungary	[47.49801,19.03991]	3054643	city, village,...
Buenos Aires	Buenos Aires	Buenos Aires F.D.	Argentina	[-34.61315,-58.37723]	3435910	city, village,...
Calcutta	Kolkata	Bengal	India	[22.56263,88.36304]	1275004	city, village,...
Cambridge Eng	Cambridge	England	United Kingdom	[52.2,0.11667]	2653941	city, village,...
Cambridge England	Cambridge	England	United Kingdom	[52.2,0.11667]	2653941	city, village,...
Cambridge, MA	Cambridge	Massachusetts	United States	[42.3751,-71.10561]	4931972	city, village,...
Chicago, Illinois	Chicago	Illinois	United States	[41.85003,-87.65005]	4887398	city, village,...
Cincinnati	Cincinnati	Ohio	United States	[39.162,-84.45689]	4508722	city, village,...
Cincinnati, Ohio	Cincinnati	Ohio	United States	[39.162,-84.45689]	4508722	city, village,...
Cleveland	Cleveland	Ohio	United States	[41.4995,-81.69541]	5150529	city, village,...
Detroit	Detroit	Michigan	United States	[42.33143,-83.04575]	4990729	city, village,...
Dordrecht	Dordrecht	South Holland	Netherlands	[51.81,4.67361]	2756669	city, village,...
Dublin	Dublin	Leinster	Ireland	[53.33306,-6.24889]	2964574	city, village,...
Englewood Cliffs, New Jersey	Englewood Cliffs	New Jersey	United States	[40.88538,-73.95236]	5097677	city, village,...
Firenze	Florence	Tuscany	Italy	[43.77925,11.24626]	3176959	city, village,...
Glasgow	Glasgow	Scotland	United Kingdom	[55.86515,-4.25763]	2648579	city, village,...
Grand Rapids, Michigan	Grand Rapids	Michigan	United States	[42.96336,-85.66809]	4994358	city, village,...
Hamburg	Hamburg	Hamburg	Germany	[53.57532,10.01534]	2911298	city, village,...
Hartford	Hartford	Connecticut	United States	[41.76371,-72.68509]	4835797	city, village,...
Heidelberg	Heidelberg	Baden-Württemberg	Germany	[49.40768,8.69079]	2907911	city, village,...
Helena, Montana	Helena	Montana	United States	[46.59271,-112.03611]	5656882	city, village,...
Hoboken, New Jersey	Hoboken	New Jersey	United States	[40.74399,-74.03236]	5099133	city, village,...
Indianapolis	Indianapolis	Indiana	United States	[39.76838,-86.15804]	4259418	city, village,...
Indianapolis, IN	Indianapolis	Indiana	United States	[39.76838,-86.15804]	4259418	city, village,...
Indianapolis, Indiana	Indianapolis	Indiana	United States	[39.76838,-86.15804]	4259418	city, village,...
Jena	Jena	Thuringia	Germany	[50.92878,11.5899]	2895044	city, village,...
Kansas City, Missouri	Kansas City	Missouri	United States	[39.09973,-94.57857]	4393217	city, village,...
Kjøbenhavn	Copenhagen	Capital Region	Denmark	[55.67594,12.56553]	2618425	city, village,...
Korea	Republic of Korea		South Korea	[36.5,127.75]	1835841	country, state, region,...
Lanham, Maryland	Lanham	Maryland	United States	[38.96706,-76.86192]	4360321	city, village,...
Leiden	Leiden	South Holland	Netherlands	[52.15833,4.49306]	2751773	city, village,...
Lisboa	Lisbon	Lisbon	Portugal	[38.71667,-9.13333]	2267057	city, village,...
London, Ontario	London	Ontario	Canada	[42.98339,-81.23304]	6058560	city, village,...
Los Angeles	Los Angeles	California	United States	[34.05223,-118.24368]	5368361	city, village,...
Madrid	Madrid	Madrid	Spain	[40.4165,-3.70256]	3117735	city, village,...
Milano	Milano	Lombardy	Italy	[45.46427,9.18951]	3173435	city, village,...
Milwaukee	Milwaukee	Wisconsin	United States	[43.0389,-87.90647]	5263045	city, village,...
Minneapolis	Minneapolis	Minnesota	United States	[44.97997,-93.26384]	5037649	city, village,...
Minneapolis, Minnesota	Minneapolis	Minnesota	United States	[44.97997,-93.26384]	5037649	city, village,...
Monterey, California	Monterey	California	United States	[36.60024,-121.89468]	5374361	city, village,...
Montreal	Montréal	Quebec	Canada	[45.50884,-73.58781]	6077243	city, village,...
Montréal	Montréal	Quebec	Canada	[45.50884,-73.58781]	6077243	city, village,...
Moskva	Moscow	Moscow	Russia	[55.75222,37.61556]	524901	city, village,...
München	Munich	Bavaria	Germany	[48.13743,11.57549]	2867714	city, village,...
NY	New York City	New York	United States	[40.71427,-74.00597]	5128581	city, village,...
Nashville	Nashville	Tennessee	United States	[36.16589,-86.78444]	4644585	city, village,...
Nashville, Tennessee	Nashville	Tennessee	United States	[36.16589,-86.78444]	4644585	city, village,...
New Haven	New Haven	Connecticut	United States	[41.30815,-72.92816]	4839366	city, village,...
New York, NY, USA	New York City	New York	United States	[40.71427,-74.00597]	5128581	city, village,...
New York, New York	New York City	New York	United States	[40.71427,-74.00597]	5128581	city, village,...
New-York	New York City	New York	United States	[40.71427,-74.00597]	5128581	city, village,...
Nyu Yorḳ	New York City	New York	United States	[40.71427,-74.00597]	5128581	city, village,...
Ottawa	Ottawa	Ontario	Canada	[45.41117,-75.69812]	6094817	city, village,...
Philadelphia, Pennsylvania	Philadelphia	Pennsylvania	United States	[39.95233,-75.16379]	4560349	city, village,...
Princeton, New Jersey	Princeton	New Jersey	United States	[40.34872,-74.65905]	5102922	city, village,...
Quebec	Québec	Quebec	Canada	[46.81228,-71.21454]	6325494	city, village,...
Racine, Wisconsin	Racine	Wisconsin	United States	[42.72613,-87.78285]	5268249	city, village,...
Reading, Massachusetts	North Reading	Massachusetts	United States	[42.57509,-71.07867]	4945734	city, village,...
Roma	Roma	Latium	Italy	[41.89193,12.51133]	3169070	city, village,...
Salt Lake City	Salt Lake City	Utah	United States	[40.76078,-111.89105]	5780993	city, village,...
Salt Lake City, Utah	Salt Lake City	Utah	United States	[40.76078,-111.89105]	5780993	city, village,...
San Diego	San Diego	California	United States	[32.71533,-117.15726]	5391811	city, village,...
San Francisco	San Francisco	California	United States	[37.77493,-122.41942]	5391959	city, village,...
San Francisco, California	San Francisco	California	United States	[37.77493,-122.41942]	5391959	city, village,...
Sl	Unknown	Unknown	Unknown	Unknown	None	Unknown
Springfield, Virginia	Springfield	Virginia	United States	[38.78928,-77.1872]	4787117	city, village,...
St Louis	St. Louis	Missouri	United States	[38.62727,-90.19789]	4407066	city, village,...
St Louis, Missouri	St. Louis	Missouri	United States	[38.62727,-90.19789]	4407066	city, village,...
Stockholm	Stockholm	Stockholm	Sweden	[59.33258,18.0649]	2673730	city, village,...
Stuttgart	Stuttgart	Baden-Württemberg	Germany	[48.78232,9.17702]	2825297	city, village,...
Tokyo	Tokyo	Tōkyō	Japan	[35.6895,139.69171]	1850147	city, village,...
Upper Saddle River, New Jersey	Upper Saddle River	New Jersey	United States	[41.05843,-74.09848]	5105733	city, village,...
Urbana	Urbana	Illinois	United States	[40.11059,-88.20727]	4914570	city, village,...
Urbana, Illinois	Urbana	Illinois	United States	[40.11059,-88.20727]	4914570	city, village,...
Washington, District of Columbia	Washington, D. C.	Washington, D.C.	United States	[38.89511,-77.03637]	4140963	city, village,...
Waterville, Maine	Waterville	Maine	United States	[44.55201,-69.63171]	4982236	city, village,...
Westport, Connecticut	Westport	Connecticut	United States	[41.14149,-73.3579]	4845585	city, village,...
Wheaton, Illinois	Wheaton	Illinois	United States	[41.86614,-88.10701]	4916288	city, village,...
Wien	Vienna	Vienna	Austria	[48.20849,16.37208]	2761369	city, village,...
Wiesbaden	Wiesbaden	Hesse	Germany	[50.08258,8.24932]	2809346	city, village,...
np	Unknown	Unknown	Unknown	Unknown	None	Unknown
sl	Unknown	Unknown	Unknown	Unknown	None	Unknown
A Amsterdam	Amsterdam	North Holland	Netherlands	[52.37403,4.88969]	2759794	city, village,...
A Londres	London	England	United Kingdom	[51.50853,-0.12574]	2643743	city, village,...
Abingdon, Oxon	Abingdon	England	United Kingdom	[51.67109,-1.28278]	2657780	city, village,...
Aldershot	Aldershot	England	United Kingdom	[51.24827,-0.76389]	2657540	city, village,...
Aldershot, England	Aldershot	England	United Kingdom	[51.24827,-0.76389]	2657540	city, village,...
Aldershot, Hants, England	Aldershot	England	United Kingdom	[51.24827,-0.76389]	2657540	city, village,...
Ames, Iowa	Ames	Iowa	United States	[42.03471,-93.61994]	4846834	city, village,...
Amherst	North Amherst	Massachusetts	United States	[42.41037,-72.53092]	4945497	city, village,...
Amstelodami	Amsterdam	North Holland	Netherlands	[52.37403,4.88969]	2759794	city, village,...
Ann Arbor	Ann Arbor	Michigan	United States	[42.27756,-83.74088]	4984247	city, village,...
Annapolis	Annapolis	Maryland	United States	[38.97845,-76.49218]	4347242	city, village,...
Armonk, New York	Armonk	New York	United States	[41.12648,-73.71402]	5107346	city, village,...
Atlanta	Atlanta	Georgia	United States	[33.749,-84.38798]	4180439	city, village,...
Atlanta, Georgia	Atlanta	Georgia	United States	[33.749,-84.38798]	4180439	city, village,...
Auburn	Auburn	New York	United States	[42.93173,-76.56605]	5107505	city, village,...
Austin	Austin	Texas	United States	[30.26715,-97.74306]	4671654	city, village,...
Austin, TX	Austin	Texas	United States	[30.26715,-97.74306]	4671654	city, village,...
Avenel, New Jersey	Avenel	New Jersey	United States	[40.58038,-74.28515]	5095325	city, village,...
Bath, England	Bath	England	United Kingdom	[51.3751,-2.36172]	2656173	city, village,...
Belmont, CA	Belmont	California	United States	[37.52021,-122.2758]	5327455	city, village,...
Berolini	Unknown	Unknown	Unknown	Unknown	None	Unknown
Bloomington, Indiana	Bloomington	Indiana	United States	[39.16533,-86.52639]	4254679	city, village,...
Blue Ridge Summit, Pennsylvania	Blue Ridge Summit	Pennsylvania	United States	[39.72426,-77.47138]	4556668	city, village,...
Boca Raton, Florida	Boca Raton	Florida	United States	[26.35869,-80.0831]	4148411	city, village,...
Bonnae	Bonn	North Rhine-Westphalia	Germany	[50.73438,7.09549]	2946447	city, village,...
Boston, New York	North Boston	New York	United States	[42.68562,-78.7767]	5128914	city, village,...
Boulder	Boulder	Colorado	United States	[40.01499,-105.27055]	5574991	city, village,...
Boulder, CO	Boulder	Colorado	United States	[40.01499,-105.27055]	5574991	city, village,...
Brooklyn	Brooklyn	New York	United States	[40.6501,-73.94958]	5110302	city, village,...
Buenos-Ayres	Buenos Aires	Buenos Aires F.D.	Argentina	[-34.61315,-58.37723]	3435910	city, village,...
Buffalo, New York	Buffalo	New York	United States	[42.88645,-78.87837]	5110629	city, village,...
Burlington	Burlington	Vermont	United States	[44.47588,-73.21207]	5234372	city, village,...
Burlington, MA	Burlington	Massachusetts	United States	[42.50482,-71.19561]	4931737	city, village,...
Cambridge Cambridgeshire	Cambridge	England	United Kingdom	[52.2,0.11667]	2653941	city, village,...
Cambridge Massachusetts	Cambridge	Massachusetts	United States	[42.3751,-71.10561]	4931972	city, village,...
Cambridge, Eng	Cambridge	England	United Kingdom	[52.2,0.11667]	2653941	city, village,...
Cambridge, United Kingdom	Cambridge	England	United Kingdom	[52.2,0.11667]	2653941	city, village,...
Cape Town	Cape Town	Western Cape	South Africa	[-33.92584,18.42322]	3369157	city, village,...
Caracas	Caracas	Distrito Federal	Venezuela	[10.48801,-66.87919]	3646738	city, village,...
Carbondale	Carbondale	Illinois	United States	[37.72727,-89.21675]	4235193	city, village,...
Champaign	Champaign	Illinois	United States	[40.11642,-88.24338]	4887158	city, village,...
Champaign, IL	Champaign	Illinois	United States	[40.11642,-88.24338]	4887158	city, village,...
Champaign, Illinois	Champaign	Illinois	United States	[40.11642,-88.24338]	4887158	city, village,...
Chapel Hill	Chapel Hill	North Carolina	United States	[35.9132,-79.05584]	4460162	city, village,...
Chapel Hill, North Carolina	Chapel Hill	North Carolina	United States	[35.9132,-79.05584]	4460162	city, village,...
Charleston	Charleston	South Carolina	United States	[32.77657,-79.93092]	4574324	city, village,...
Charleston, South Carolina	Charleston	South Carolina	United States	[32.77657,-79.93092]	4574324	city, village,...
Charlottesville, Virginia	Charlottesville	Virginia	United States	[38.02931,-78.47668]	4752031	city, village,...
Cheltenham	Cheltenham	England	United Kingdom	[51.9,-2.08333]	2653261	city, village,...
Cheltenham, United Kingdom	Cheltenham	England	United Kingdom	[51.9,-2.08333]	2653261	city, village,...
Chicago, IL	Chicago	Illinois	United States	[41.85003,-87.65005]	4887398	city, village,...
Chichester	Chichester	England	United Kingdom	[50.83673,-0.78003]	2653192	city, village,...
Chichester, England	Chichester	England	United Kingdom	[50.83673,-0.78003]	2653192	city, village,...
Chichester, West Sussex	Chichester	England	United Kingdom	[50.83673,-0.78003]	2653192	city, village,...
Chichester, West Sussex, England	Chichester	England	United Kingdom	[50.83673,-0.78003]	2653192	city, village,...
Chichester, West Sussex, United Kingdom	Chichester	England	United Kingdom	[50.83673,-0.78003]	2653192	city, village,...
Christiania	Christiania	Capital Region	Denmark	[55.67346,12.59765]	2623186	city, village,...
Cincinnati, O	Cincinnati	Ohio	United States	[39.162,-84.45689]	4508722	city, village,...
Cincinnati, OH	Cincinnati	Ohio	United States	[39.162,-84.45689]	4508722	city, village,...
Cleveland, O	Cleveland	Ohio	United States	[41.4995,-81.69541]	5150529	city, village,...
Cleveland, Ohio	Cleveland	Ohio	United States	[41.4995,-81.69541]	5150529	city, village,...
Clifton Park, New York	Clifton Park	New York	United States	[42.86563,-73.77095]	5112961	city, village,...
Clyde, Ohio	Clyde	Ohio	United States	[41.30422,-82.97519]	5150651	city, village,...
Coimbra	Coimbra	Coimbra	Portugal	[40.20564,-8.41955]	2740637	city, village,...
Colorado Springs, CO	Colorado Springs	Colorado	United States	[38.83388,-104.82136]	5417598	city, village,...
Colorado Springs, Colorado	Colorado Springs	Colorado	United States	[38.83388,-104.82136]	5417598	city, village,...
Columbia	Republic of Colombia		Colombia	[4,-73.25]	3686110	country, state, region,...
Columbia, Missouri	Columbia	Missouri	United States	[38.95171,-92.33407]	4381982	city, village,...
Columbia, South Carolina	Columbia	South Carolina	United States	[34.00071,-81.03481]	4575352	city, village,...
Columbus	Columbus	Ohio	United States	[39.96118,-82.99879]	4509177	city, village,...
Columbus, O	Columbus	Ohio	United States	[39.96118,-82.99879]	4509177	city, village,...
Columbus, Ohio	Columbus	Ohio	United States	[39.96118,-82.99879]	4509177	city, village,...
Concord	Concord Peak		Tajikistan	[37.333,73.766]	1161925	mountain,hill,rock,... 
Concord, New Hampshire	Concord	New Hampshire	United States	[43.20814,-71.53757]	5084868	city, village,...
Copenhagen	Copenhagen	Capital Region	Denmark	[55.67594,12.56553]	2618425	city, village,...
Dallas	Dallas	Texas	United States	[32.78306,-96.80667]	4684888	city, village,...
Dallas, Texas	Dallas	Texas	United States	[32.78306,-96.80667]	4684888	city, village,...
Danbury, Connecticut	Danbury	Connecticut	United States	[41.39482,-73.45401]	4832353	city, village,...
Darmstadt	Darmstadt	Hesse	Germany	[49.87167,8.65027]	2938913	city, village,...
Dayton, Ohio	Dayton	Ohio	United States	[39.75895,-84.19161]	4509884	city, village,...
Deerfield Beach, Florida	Deerfield Beach	Florida	United States	[26.31841,-80.09977]	4153071	city, village,...
Delhi	Delhi	NCT	India	[28.65381,77.22897]	1273294	city, village,...
Denver	Denver	Colorado	United States	[39.73915,-104.9847]	5419384	city, village,...
Denver, CO	Denver	Colorado	United States	[39.73915,-104.9847]	5419384	city, village,...
Denver, Colorado	Denver	Colorado	United States	[39.73915,-104.9847]	5419384	city, village,...
Des Moines	Des Moines	Iowa	United States	[41.60054,-93.60911]	4853828	city, village,...
Des Moines, IA	Des Moines	Iowa	United States	[41.60054,-93.60911]	4853828	city, village,...
Des Moines, Iowa	Des Moines	Iowa	United States	[41.60054,-93.60911]	4853828	city, village,...
Detroit, MI	Detroit	Michigan	United States	[42.33143,-83.04575]	4990729	city, village,...
Detroit, Michigan	Detroit	Michigan	United States	[42.33143,-83.04575]	4990729	city, village,...
Don Mills, Ontario	Don Mills	Ontario	Canada	[43.73341,-79.3329]	5941602	city, village,...
Dover, New Hampshire	Dover	New Hampshire	United States	[43.19786,-70.87367]	5085520	city, village,...
Downers Grove, Illinois	Downers Grove	Illinois	United States	[41.80892,-88.01117]	4890119	city, village,...
Dresden	Dresden	Saxony	Germany	[51.05089,13.73832]	2935022	city, village,...
Dubuque, Ia	Dubuque	Iowa	United States	[42.50056,-90.66457]	4854529	city, village,...
Dubuque, Iowa	Dubuque	Iowa	United States	[42.50056,-90.66457]	4854529	city, village,...
Durham	Durham	England	United Kingdom	[54.77676,-1.57566]	2650628	city, village,...
Durham, North Carolina	Durham	North Carolina	United States	[35.99403,-78.89862]	4464368	city, village,...
Easton, Pennsylvania	Easton	Pennsylvania	United States	[40.68843,-75.22073]	5188140	city, village,...
Edina, Minnesota	Edina	Minnesota	United States	[44.88969,-93.34995]	5025264	city, village,...
Edmonton	Edmonton	Alberta	Canada	[53.55014,-113.46871]	5946768	city, village,...
Edmonton, AB	Edmonton	Alberta	Canada	[53.55014,-113.46871]	5946768	city, village,...
Edmonton, Alberta	Edmonton	Alberta	Canada	[53.55014,-113.46871]	5946768	city, village,...
Elgin, Illinois	Elgin	Illinois	United States	[42.03725,-88.28119]	4890864	city, village,...
Emeryville, CA	Emeryville	California	United States	[37.83132,-122.28525]	5346462	city, village,...
Emeryville, California	Emeryville	California	United States	[37.83132,-122.28525]	5346462	city, village,...
Emmaus, Pennsylvania	Emmaus	Pennsylvania	United States	[40.53954,-75.49685]	5188726	city, village,...
En Lima	Lima	Lima	Peru	[-12.04318,-77.02824]	3936456	city, village,...
Englewood, Colorado	Englewood	Colorado	United States	[39.64777,-104.98776]	5421250	city, village,...
Erlangen	Erlangen	Bavaria	Germany	[49.59099,11.00783]	2929567	city, village,...
Eugene, Oregon	Eugene	Oregon	United States	[44.05207,-123.08675]	5725846	city, village,...
Evanston, Illinois	Evanston	Illinois	United States	[42.04114,-87.69006]	4891382	city, village,...
Florence	Florence	Tuscany	Italy	[43.77925,11.24626]	3176959	city, village,...
Fort Belvoir, Virginia	Fort Belvoir	Virginia	United States	[38.7119,-77.14589]	7257902	city, village,...
Fort Wayne, Indiana	Fort Wayne	Indiana	United States	[41.1306,-85.12886]	4920423	city, village,...
Fort Worth	Fort Worth	Texas	United States	[32.72541,-97.32085]	4691930	city, village,...
Fort Worth, Texas	Fort Worth	Texas	United States	[32.72541,-97.32085]	4691930	city, village,...
Foster City, CA	Foster City	California	United States	[37.55855,-122.27108]	5350159	city, village,...
Frankfurt a M	Frankfurt am Main	Hesse	Germany	[50.11552,8.68417]	2925533	city, village,...
Frankfurt aM	Frankfurt am Main	Hesse	Germany	[50.11552,8.68417]	2925533	city, village,...
Frankfurt am Main	Frankfurt am Main	Hesse	Germany	[50.11552,8.68417]	2925533	city, village,...
Franklin Lakes, New Jersey	Franklin Lakes	New Jersey	United States	[41.01676,-74.2057]	5098242	city, village,...
Freiburg im Breisgau	Freiburg	Baden-Württemberg	Germany	[47.9959,7.85222]	2925177	city, village,...
Gand	Gent	Flemish Region	Belgium	[51.05,3.71667]	2797656	city, village,...
Garden City	Garden City	New York	United States	[40.72677,-73.6343]	5118226	city, village,...
Geneva	Genève	Geneva	Switzerland	[46.20222,6.14569]	2660646	city, village,...
Genève	Genève	Geneva	Switzerland	[46.20222,6.14569]	2660646	city, village,...
Genova	Genoa	Liguria	Italy	[44.4264,8.91519]	3176219	city, village,...
Genève	Genève	Geneva	Switzerland	[46.20222,6.14569]	2660646	city, village,...
Giessen	Gießen	Hesse	Germany	[50.58727,8.67554]	2920512	city, village,...
Girard, Kansas	Girard	Kansas	United States	[37.51116,-94.83802]	4272061	city, village,...
Glendale, California	Glendale	California	United States	[34.14251,-118.25508]	5352423	city, village,...
Glenview, Illinois	Glenview	Illinois	United States	[42.06975,-87.78784]	4893886	city, village,...
Golden, Colorado	Golden	Colorado	United States	[39.75554,-105.2211]	5423294	city, village,...
Gotha	Gotha	Thuringia	Germany	[50.94823,10.70193]	2918752	city, village,...
Gottingae	Göttingen	Lower Saxony	Germany	[51.53443,9.93228]	2918632	city, village,...
Göttingen	Göttingen	Lower Saxony	Germany	[51.53443,9.93228]	2918632	city, village,...
Grand Rapids	Grand Rapids	Michigan	United States	[42.96336,-85.66809]	4994358	city, village,...
Grand Rapids, MI	Grand Rapids	Michigan	United States	[42.96336,-85.66809]	4994358	city, village,...
Graz	Graz	Styria	Austria	[47.06667,15.45]	2778067	city, village,...
Greensboro, North Carolina	Greensboro	North Carolina	United States	[36.07264,-79.79198]	4469146	city, village,...
Greenwich, Connecticut	Greenwich	Connecticut	United States	[41.02649,-73.62846]	4835395	city, village,...
Greifswald	Greifswald	Mecklenburg-Vorpommern	Germany	[54.09311,13.38786]	2917788	city, village,...
Guilford, Connecticut	Guilford	Connecticut	United States	[41.28899,-72.68176]	4835512	city, village,...
Göttingen	Göttingen	Lower Saxony	Germany	[51.53443,9.93228]	2918632	city, village,...
Gütersloh	Gütersloh	North Rhine-Westphalia	Germany	[51.90693,8.37853]	2913366	city, village,...
Habana	Havana	Provincia de La Habana	Cuba	[23.13302,-82.38304]	3553478	city, village,...
Hackensack, New Jersey	Hackensack	New Jersey	United States	[40.88593,-74.04347]	5098706	city, village,...
Halifax	Halifax	England	United Kingdom	[53.71667,-1.85]	2647632	city, village,...
Halifax Nova Scotia	Halifax	Nova Scotia	Canada	[44.646,-63.57333]	5969423	city, village,...
Halifax, Nova Scotia	Halifax	Nova Scotia	Canada	[44.646,-63.57333]	5969423	city, village,...
Halle	Halle (Saale)	Saxony-Anhalt	Germany	[51.5,12]	2911522	city, village,...
Halle AS	Halle (Saale)	Saxony-Anhalt	Germany	[51.5,12]	2911522	city, village,...
Halle a S	Halle (Saale)	Saxony-Anhalt	Germany	[51.5,12]	2911522	city, village,...
Hamilton Ontario	Hamilton	Ontario	Canada	[43.25011,-79.84963]	5969782	city, village,...
Hamilton, Ontario	Hamilton	Ontario	Canada	[43.25011,-79.84963]	5969782	city, village,...
Hannover	Hannover	Lower Saxony	Germany	[52.37052,9.73322]	2910831	city, village,...
Harlow, England	Harlow	England	United Kingdom	[51.77655,0.11158]	2647461	city, village,...
Harmondsworth, Eng	Harmondsworth	England	United Kingdom	[51.48836,-0.47757]	6951076	city, village,...
Harmondsworth, Middlesex, England	Unknown	Unknown	Unknown	Unknown	None	Unknown
Harrisburg	Harrisburg	Pennsylvania	United States	[40.2737,-76.88442]	5192726	city, village,...
Harrisburg, Pennsylvania	Harrisburg	Pennsylvania	United States	[40.2737,-76.88442]	5192726	city, village,...
Hartford, Connecticut	Hartford	Connecticut	United States	[41.76371,-72.68509]	4835797	city, village,...
Heilbronn	Heilbronn	Baden-Württemberg	Germany	[49.13995,9.22054]	2907669	city, village,...
Helena	Helena	Montana	United States	[46.59271,-112.03611]	5656882	city, village,...
Helena, MT	Helena	Montana	United States	[46.59271,-112.03611]	5656882	city, village,...
Helsingfors	Helsinki	Southern Finland	Finland	[60.16952,24.93545]	658225	city, village,...
Hershey PA	Hershey	Pennsylvania	United States	[40.28592,-76.65025]	5193342	city, village,...
Hershey, PA	Hershey	Pennsylvania	United States	[40.28592,-76.65025]	5193342	city, village,...
Hildesheim	Hildesheim	Lower Saxony	Germany	[52.15077,9.95112]	2904789	city, village,...
Holbrook, Massachusetts	Holbrook	Massachusetts	United States	[42.1551,-71.00866]	4939637	city, village,...
Homewood, Illinois	Homewood	Illinois	United States	[41.55726,-87.6656]	4896353	city, village,...
Honesdale, Pennsylvania	Honesdale	Pennsylvania	United States	[41.57676,-75.25879]	5194099	city, village,...
Hong Kong	Hong Kong		Hong Kong	[22.28552,114.15769]	1819729	city, village,...
Honolulu	Honolulu	Hawaii	United States	[21.30694,-157.85833]	5856195	city, village,...
Houndmills, Basingstoke, Hampshire	Unknown	Unknown	Unknown	Unknown	None	Unknown
Houston, Texas	Houston	Texas	United States	[29.76328,-95.36327]	4699066	city, village,...
In Firenze	Incisa in Val d'Arno	Tuscany	Italy	[43.6548,11.44901]	3175525	city, village,...
In Milano	Inveruno	Lombardy	Italy	[45.51399,8.84954]	3175494	city, village,...
In Roma	Santa Maria In Trastevere	Latium	Italy	[41.8893,12.47067]	6954115	spot, building, farm
In Venetia	San Giorgio in Bosco	Veneto	Italy	[45.58863,11.80736]	3168298	city, village,...
In Venezia	San Giorgio in Alga	Veneto	Italy	[45.42484,12.29216]	3168299	mountain,hill,rock,... 
Innsbruck	Innsbruck	Tyrol	Austria	[47.26266,11.39454]	2775220	city, village,...
Inverness	Inverness	Scotland	United Kingdom	[57.47908,-4.22398]	2646088	city, village,...
Iowa City	Iowa City	Iowa	United States	[41.66113,-91.53017]	4862034	city, village,...
Iowa City, Ia	Iowa City	Iowa	United States	[41.66113,-91.53017]	4862034	city, village,...
Istanbul	İstanbul	Istanbul	Turkey	[41.01384,28.94966]	745044	city, village,...
Ithaca	Ithaca Tompkins Regional Airport	New York	United States	[42.49083,-76.45833]	6298471	spot, building, farm
Jackson	Jackson	Mississippi	United States	[32.29876,-90.18481]	4431410	city, village,...
Jefferson, North Carolina	Mount Jefferson	North Carolina	United States	[36.40318,-81.46316]	4473238	mountain,hill,rock,... 
Kansas City	Kansas City	Missouri	United States	[39.09973,-94.57857]	4393217	city, village,...
Karlsruhe	Karlsruhe	Baden-Württemberg	Germany	[49.00937,8.40444]	2892794	city, village,...
Kiel	Kiel	Schleswig-Holstein	Germany	[54.32133,10.13489]	2891122	city, village,...
Kingston, Ontario	Kingston	Ontario	Canada	[44.22976,-76.48098]	5992500	city, village,...
Kjobenhavn	Copenhagen	Capital Region	Denmark	[55.67594,12.56553]	2618425	city, village,...
Kraków	Kraków	Lesser Poland Voivodeship	Poland	[50.06143,19.93658]	3094802	city, village,...
Kristiania	Oslo	Oslo	Norway	[59.91273,10.74609]	3143244	city, village,...
Kyïv	Kiev	Kyiv City	Ukraine	[50.45466,30.5238]	703448	city, village,...
Köln	Köln	North Rhine-Westphalia	Germany	[50.93333,6.95]	2886242	city, village,...
København	Copenhagen	Capital Region	Denmark	[55.67594,12.56553]	2618425	city, village,...
La Haye	The Hague	South Holland	Netherlands	[52.07667,4.29861]	2747373	city, village,...
Lahore	Lahore	Punjab	Pakistan	[31.54972,74.34361]	1172451	city, village,...
Lancaster, Pennsylvania	Lancaster	Pennsylvania	United States	[40.03788,-76.30551]	5197079	city, village,...
Lanham	Lanham	Maryland	United States	[38.96706,-76.86192]	4360321	city, village,...
Lansing, Michigan	Lansing	Michigan	United States	[42.73253,-84.55553]	4998830	city, village,...
Lausanne	Lausanne	Vaud	Switzerland	[46.516,6.63282]	2659994	city, village,...
Lawrence, Kansas	Lawrence	Kansas	United States	[38.97167,-95.23525]	4274277	city, village,...
Le Caire	Cairo	Al Qāhirah	Egypt	[30.06263,31.24967]	360630	city, village,...
Leipsic	Leipzig	Saxony	Germany	[51.33962,12.37129]	2879139	city, village,...
Lexington	Lexington	Kentucky	United States	[37.98869,-84.47772]	4297983	city, village,...
Lexington, Kentucky	Lexington	Kentucky	United States	[37.98869,-84.47772]	4297983	city, village,...
Lexington, Massachusetts	Lexington	Massachusetts	United States	[42.44732,-71.2245]	4941935	city, village,...
Leyden	Leiden	South Holland	Netherlands	[52.15833,4.49306]	2751773	city, village,...
Liege	Liège	Walloon	Belgium	[50.63373,5.56749]	2792413	city, village,...
Lima	Lima	Lima	Peru	[-12.04318,-77.02824]	3936456	city, village,...
Lincoln, Nebraska	Lincoln	Nebraska	United States	[40.8,-96.66696]	5072006	city, village,...
Lincolnwood, IL	Lincolnwood	Illinois	United States	[42.00448,-87.73006]	4899988	city, village,...
Lincolnwood, Illinois	Lincolnwood	Illinois	United States	[42.00448,-87.73006]	4899988	city, village,...
Lipsia	Leipzig	Saxony	Germany	[51.33962,12.37129]	2879139	city, village,...
Lisbon	Lisbon	Lisbon	Portugal	[38.71667,-9.13333]	2267057	city, village,...
Little Rock, Arkansas	Little Rock	Arkansas	United States	[34.74648,-92.28959]	4119403	city, village,...
Livorno	Livorno	Tuscany	Italy	[43.54427,10.32615]	3174659	city, village,...
Londini	London	England	United Kingdom	[51.50853,-0.12574]	2643743	city, village,...
London ; New York	London	England	United Kingdom	[51.50853,-0.12574]	2643743	city, village,...
London, England	London	England	United Kingdom	[51.50853,-0.12574]	2643743	city, village,...
London, New York	London	England	United Kingdom	[51.50853,-0.12574]	2643743	city, village,...
Los Altos, California	Los Altos	California	United States	[37.38522,-122.11413]	5368335	city, village,...
Los Angeles, CA	Los Angeles	California	United States	[34.05223,-118.24368]	5368361	city, village,...
Los Angeles, California	Los Angeles	California	United States	[34.05223,-118.24368]	5368361	city, village,...
Louisville	Louisville	Kentucky	United States	[38.25424,-85.75941]	4299276	city, village,...
Louisville, Kentucky	Louisville	Kentucky	United States	[38.25424,-85.75941]	4299276	city, village,...
Louvain	Leuven	Flemish Region	Belgium	[50.87959,4.70093]	2792482	city, village,...
Lowell, Massachusetts	Lowell	Massachusetts	United States	[42.63342,-71.31617]	4942618	city, village,...
Lugduni Batavorum	Leiden	South Holland	Netherlands	[52.15833,4.49306]	2751773	city, village,...
Lund	Lund	Skåne	Sweden	[55.70584,13.19321]	2693678	city, village,...
Lwów	L'viv	Lviv	Ukraine	[49.83826,24.02324]	702550	city, village,...
Macon, Georgia	Macon	Georgia	United States	[32.84069,-83.6324]	4207400	city, village,...
Madison	Madison	Wisconsin	United States	[43.07305,-89.40123]	5261457	city, village,...
Madison, Wisconsin	Madison	Wisconsin	United States	[43.07305,-89.40123]	5261457	city, village,...
Madras	Chennai	Tamil Nadu	India	[13.08784,80.27847]	1264527	city, village,...
Mahwah, New Jersey	Mahwah	New Jersey	United States	[41.08871,-74.14376]	5100776	city, village,...
Mainz	Mainz	Rheinland-Pfalz	Germany	[49.98419,8.2791]	2874225	city, village,...
Malden, MA	Malden	Massachusetts	United States	[42.4251,-71.06616]	4942939	city, village,...
Malden, Massachusetts	Malden	Massachusetts	United States	[42.4251,-71.06616]	4942939	city, village,...
Manchester, New Hampshire	Manchester	New Hampshire	United States	[42.99564,-71.45479]	5089178	city, village,...
Manila	Manila	Metro Manila	Philippines	[14.6042,120.9822]	1701668	city, village,...
Mankato, Minnesota	Mankato	Minnesota	United States	[44.16358,-93.9994]	5036420	city, village,...
Marburg	Marburg an der Lahn	Hesse	Germany	[50.80904,8.77069]	2873759	city, village,...
Melbourne	Melbourne	Victoria	Australia	[-37.814,144.96332]	2158177	city, village,...
Menasha, Wisconsin	Menasha	Wisconsin	United States	[44.20221,-88.4465]	5262596	city, village,...
Menlo Park, CA	Menlo Park	California	United States	[37.45383,-122.18219]	5372223	city, village,...
Menlo Park, California	Menlo Park	California	United States	[37.45383,-122.18219]	5372223	city, village,...
Metuchen, New Jersey	Metuchen	New Jersey	United States	[40.54316,-74.3632]	5101125	city, village,...
Mexico	Mexico		Mexico	[23,-102]	3996063	country, state, region,...
México	Mexico		Mexico	[23,-102]	3996063	country, state, region,...
Middleton, WI	Middleton	Wisconsin	United States	[43.09722,-89.50429]	5262838	city, village,...
Middletown, Connecticut	Middletown	Connecticut	United States	[41.56232,-72.65065]	4838633	city, village,...
Milan	Milano	Lombardy	Italy	[45.46427,9.18951]	3173435	city, village,...
Milton Park, Abingdon, Oxon	Unknown	Unknown	Unknown	Unknown	None	Unknown
Milwaukee, WI	Milwaukee	Wisconsin	United States	[43.0389,-87.90647]	5263045	city, village,...
Milwaukee, Wisconsin	Milwaukee	Wisconsin	United States	[43.0389,-87.90647]	5263045	city, village,...
Minneapolis, MN	Minneapolis	Minnesota	United States	[44.97997,-93.26384]	5037649	city, village,...
Minnetonka, Minnesota	Minnetonka	Minnesota	United States	[44.9133,-93.50329]	5037784	city, village,...
Missoula, Montana	Missoula	Montana	United States	[46.87215,-113.994]	5666639	city, village,...
Montevideo	Montevideo	Montevideo	Uruguay	[-34.90328,-56.18816]	3441575	city, village,...
Montgomery, Alabama	Montgomery	Alabama	United States	[32.36681,-86.29997]	4076784	city, village,...
Monticello, Illinois	Monticello	Illinois	United States	[40.02781,-88.5734]	4902567	city, village,...
Montréal	Montréal	Quebec	Canada	[45.50884,-73.58781]	6077243	city, village,...
Morristown, New Jersey	Morristown	New Jersey	United States	[40.79677,-74.48154]	5101427	city, village,...
Morton Grove, Illinois	Morton Grove	Illinois	United States	[42.04059,-87.78256]	4902763	city, village,...
Moscow	Moscow	Moscow	Russia	[55.75222,37.61556]	524901	city, village,...
Mosḳṿe	Moscow	Moscow	Russia	[55.75222,37.61556]	524901	city, village,...
Mountain View, California	Mountain View	California	United States	[37.38605,-122.08385]	5375480	city, village,...
München	Munich	Bavaria	Germany	[48.13743,11.57549]	2867714	city, village,...
México, Distrito Federal	Mexico City	The Federal District	Mexico	[19.42847,-99.12766]	3530597	city, village,...
Münster	Münster	North Rhine-Westphalia	Germany	[51.96236,7.62571]	2867543	city, village,...
Naperville	Naperville	Illinois	United States	[41.78586,-88.14729]	4903279	city, village,...
Naperville, Illinois	Naperville	Illinois	United States	[41.78586,-88.14729]	4903279	city, village,...
Napoli	Napoli	Campania	Italy	[40.85631,14.24641]	3172394	city, village,...
Nashville, TN	Nashville	Tennessee	United States	[36.16589,-86.78444]	4644585	city, village,...
New Brunswick, New Jersey	New Brunswick	New Jersey	United States	[40.48622,-74.45182]	5101717	city, village,...
New Delhi	Delhi	NCT	India	[28.65381,77.22897]	1273294	city, village,...
New Haven, CT	New Haven	Connecticut	United States	[41.30815,-72.92816]	4839366	city, village,...
New Haven, Connecticut	New Haven	Connecticut	United States	[41.30815,-72.92816]	4839366	city, village,...
New Jersey	Trenton	New Jersey	United States	[40.21705,-74.74294]	5105496	city, village,...
New Orleans	New Orleans	Louisiana	United States	[29.95465,-90.07507]	4335045	city, village,...
New York, Chicago	New York City	New York	United States	[40.71427,-74.00597]	5128581	city, village,...
New York, London	New York City	New York	United States	[40.71427,-74.00597]	5128581	city, village,...
New York, USA	New York City	New York	United States	[40.71427,-74.00597]	5128581	city, village,...
Newark, New Jersey	Newark	New Jersey	United States	[40.73566,-74.17237]	5101798	city, village,...
Norfolk, Virginia	Norfolk	Virginia	United States	[36.84681,-76.28522]	4776222	city, village,...
Norman	Norman	Oklahoma	United States	[35.22257,-97.43948]	4543762	city, village,...
Northampton, MA	Northampton	Massachusetts	United States	[42.32509,-72.6412]	4945819	city, village,...
Northampton, Massachusetts	Northampton	Massachusetts	United States	[42.32509,-72.6412]	4945819	city, village,...
Norwalk, Connecticut	Norwalk	Connecticut	United States	[41.1176,-73.4079]	4839822	city, village,...
Notre Dame, Indiana	University of Notre Dame	Indiana	United States	[41.7031,-86.23917]	4927505	spot, building, farm
Novato, California	Novato	California	United States	[38.10742,-122.5697]	5378044	city, village,...
Nyu-Yorḳ	New York City	New York	United States	[40.71427,-74.00597]	5128581	city, village,...
Nürnberg	Nürnberg	Bavaria	Germany	[49.45421,11.07752]	2861650	city, village,...
Oakland, CA	Oakland	California	United States	[37.80437,-122.2708]	5378538	city, village,...
Oakland, California	Oakland	California	United States	[37.80437,-122.2708]	5378538	city, village,...
Old Tappan, New Jersey	Old Tappan	New Jersey	United States	[41.01065,-73.99125]	5102190	city, village,...
Omaha, Nebraska	Omaha	Nebraska	United States	[41.25861,-95.93779]	5074472	city, village,...
Orlando	Orlando	Florida	United States	[28.53834,-81.37924]	4167147	city, village,...
Orlando, Florida	Orlando	Florida	United States	[28.53834,-81.37924]	4167147	city, village,...
Ottawa, Ontario	Ottawa	Ontario	Canada	[45.41117,-75.69812]	6094817	city, village,...
Oxford England	Oxford	England	United Kingdom	[51.75222,-1.25596]	2640729	city, village,...
Oxford Oxfordshire	Oxford	England	United Kingdom	[51.75222,-1.25596]	2640729	city, village,...
Oxford, United Kingdom	Oxford	England	United Kingdom	[51.75222,-1.25596]	2640729	city, village,...
Oxonii	Oxford	England	United Kingdom	[51.75222,-1.25596]	2640729	city, village,...
Pacific Grove, California	Pacific Grove	California	United States	[36.61774,-121.91662]	5380437	city, village,...
Paderborn	Paderborn	North Rhine-Westphalia	Germany	[51.71905,8.75439]	2855745	city, village,...
Padova	Padova	Veneto	Italy	[45.40797,11.88586]	3171728	city, village,...
Paisley	Paisley Seamount			[-14.08333,41.5]	1084869	undersea
Palermo	Palermo	Sicily	Italy	[38.13205,13.33561]	2523920	city, village,...
Palo Alto, California	Palo Alto	California	United States	[37.44188,-122.14302]	5380748	city, village,...
Paris, France	Paris	Île-de-France	France	[48.85341,2.3488]	2988507	city, village,...
Pasadena, California	Pasadena	California	United States	[34.14778,-118.14452]	5381396	city, village,...
Peoria, Illinois	Peoria	Illinois	United States	[40.69365,-89.58899]	4905687	city, village,...
Pest	Pest megye	Pest	Hungary	[47.41667,19.33333]	3046431	country, state, region,...
Phila	Philadelphia	Pennsylvania	United States	[39.95233,-75.16379]	4560349	city, village,...
Phoenix, Arizona	Phoenix	Arizona	United States	[33.44838,-112.07404]	5308655	city, village,...
Pisa	Pisa	Tuscany	Italy	[43.70853,10.4036]	3170647	city, village,...
Piscataway, New Jersey	Piscataway	New Jersey	United States	[40.49927,-74.39904]	5102713	city, village,...
Pittsburgh	Pittsburgh	Pennsylvania	United States	[40.44062,-79.99589]	5206379	city, village,...
Pittsburgh, Pennsylvania	Pittsburgh	Pennsylvania	United States	[40.44062,-79.99589]	5206379	city, village,...
Plainfield, New Jersey	Plainfield	New Jersey	United States	[40.61682,-74.41727]	5102720	city, village,...
Portland	Portland	Oregon	United States	[45.52345,-122.67621]	5746545	city, village,...
Portland, Maine	Portland	Maine	United States	[43.66147,-70.25533]	4975802	city, village,...
Portland, Oregon	Portland	Oregon	United States	[45.52345,-122.67621]	5746545	city, village,...
Porto	Porto	Porto	Portugal	[41.14961,-8.61099]	2735943	city, village,...
Portsmouth, New Hampshire	Portsmouth	New Hampshire	United States	[43.07176,-70.76255]	5091383	city, village,...
Pownal, VT	Pownal	Vermont	United States	[42.76564,-73.23594]	5239997	city, village,...
Prag	Prague	Praha	Czechia	[50.08804,14.42076]	3067696	city, village,...
Praha	Prague	Praha	Czechia	[50.08804,14.42076]	3067696	city, village,...
Princeton	Princeton	New Jersey	United States	[40.34872,-74.65905]	5102922	city, village,...
Providence	Providence	Rhode Island	United States	[41.82399,-71.41283]	5224151	city, village,...
Providence, Rhode Island	Providence	Rhode Island	United States	[41.82399,-71.41283]	5224151	city, village,...
Provo, Utah	Provo	Utah	United States	[40.23384,-111.65853]	5780026	city, village,...
Québec	Québec	Quebec	Canada	[46.81228,-71.21454]	6325494	city, village,...
Québec	Québec	Quebec	Canada	[46.81228,-71.21454]	6325494	city, village,...
Racine, Wi	Racine	Wisconsin	United States	[42.72613,-87.78285]	5268249	city, village,...
Radnor, Pennsylvania	Radnor	Pennsylvania	United States	[40.04622,-75.35991]	5207490	city, village,...
Raleigh	Raleigh	North Carolina	United States	[35.7721,-78.63861]	4487042	city, village,...
Raleigh, North Carolina	Raleigh	North Carolina	United States	[35.7721,-78.63861]	4487042	city, village,...
Reading, Pennsylvania	Reading	Pennsylvania	United States	[40.33565,-75.92687]	5207728	city, village,...
Redmond, Washington	Redmond	Washington	United States	[47.67399,-122.12151]	5808079	city, village,...
Redmond, Western Australia	Redmond	Western Australia	Australia	[-34.86667,117.68333]	2062541	city, village,...
Regensburg	Regensburg	Bavaria	Germany	[49.03451,12.11923]	2849483	city, village,...
Renton, Western Australia	William Renton Park	Western Australia	Australia	[-32.04056,115.8078]	8163509	parks,area, ...
Reston, VA	Reston	Virginia	United States	[38.96872,-77.3411]	4781530	city, village,...
Richmond, Virginia	Richmond	Virginia	United States	[37.55376,-77.46026]	4781708	city, village,...
Rio de Janeiro	Rio de Janeiro	Rio de Janeiro	Brazil	[-22.90278,-43.2075]	3451190	city, village,...
River Edge, New Jersey	River Edge	New Jersey	United States	[40.92871,-74.03986]	5103301	city, village,...
Rochester	Rochester	New York	United States	[43.15478,-77.61556]	5134086	city, village,...
Rockland, MA	Rockland	Massachusetts	United States	[42.13066,-70.91616]	4948924	city, village,...
Rocklin, CA	Rocklin	California	United States	[38.79073,-121.23578]	5388319	city, village,...
Rockville, MD	Rockville	Maryland	United States	[39.084,-77.15276]	4367175	city, village,...
Romae	Roma	Latium	Italy	[41.89193,12.51133]	3169070	city, village,...
Rome	Roma	Latium	Italy	[41.89193,12.51133]	3169070	city, village,...
Rotterdam	Rotterdam	South Holland	Netherlands	[51.9225,4.47917]	2747891	city, village,...
Rouen	Rouen	Upper Normandy	France	[49.44313,1.09932]	2982652	city, village,...
Roxbury	Roxbury	Maine	United States	[44.66978,-70.5934]	4977088	city, village,...
Rutland, Vermont	Rutland County	Vermont	United States	[43.58009,-73.03661]	5240516	country, state, region,...
S-Peterburg	Saint Petersburg	St.-Petersburg	Russia	[59.93863,30.31413]	498817	city, village,...
Sacramento	Sacramento	California	United States	[38.58157,-121.4944]	5389489	city, village,...
Sacramento, CA	Sacramento	California	United States	[38.58157,-121.4944]	5389489	city, village,...
Sacramento, California	Sacramento	California	United States	[38.58157,-121.4944]	5389489	city, village,...
Saint John, New Brunswick	Saint John	New Brunswick	Canada	[45.27271,-66.06766]	6138517	city, village,...
Saint Louis	St. Louis	Missouri	United States	[38.62727,-90.19789]	4407066	city, village,...
Salem	Salem	Massachusetts	United States	[42.51954,-70.89672]	4950065	city, village,...
Salem, Massachusetts	Salem	Massachusetts	United States	[42.51954,-70.89672]	4950065	city, village,...
San Diego, CA	San Diego	California	United States	[32.71533,-117.15726]	5391811	city, village,...
San Diego, California	San Diego	California	United States	[32.71533,-117.15726]	5391811	city, village,...
San Francisco, CA	San Francisco	California	United States	[37.77493,-122.41942]	5391959	city, village,...
San Francisco, Cal	San Francisco de la Cal	Jalisco	Mexico	[20.46861,-102.70861]	8905254	city, village,...
San Jose California	San Jose	California	United States	[37.33939,-121.89496]	5392171	city, village,...
San Jose, California	San Jose	California	United States	[37.33939,-121.89496]	5392171	city, village,...
Sankt-Peterburg	Saint Petersburg	St.-Petersburg	Russia	[59.93863,30.31413]	498817	city, village,...
Sanktpeterburg	Saint Petersburg	St.-Petersburg	Russia	[59.93863,30.31413]	498817	city, village,...
Santa Barbara	Santa Barbara	California	United States	[34.42083,-119.69819]	5392952	city, village,...
Santa Barbara, CA	Santa Barbara	California	United States	[34.42083,-119.69819]	5392952	city, village,...
Santa Barbara, California	Santa Barbara	California	United States	[34.42083,-119.69819]	5392952	city, village,...
Santa Fe, New Mexico	Santa Fe	New Mexico	United States	[35.68698,-105.9378]	5490263	city, village,...
Santa Monica, CA	Santa Monica	California	United States	[34.01945,-118.49119]	5393212	city, village,...
Santiago de Chile	Santiago	Santiago Metropolitan	Chile	[-33.45694,-70.64827]	3871336	city, village,...
Scottsdale, AZ	Scottsdale	Arizona	United States	[33.50921,-111.89903]	5313457	city, village,...
Scranton, Pennsylvania	Scranton	Pennsylvania	United States	[41.40897,-75.66241]	5211303	city, village,...
Seattle	Seattle	Washington	United States	[47.60621,-122.33207]	5809844	city, village,...
Seattle, Washington	Seattle	Washington	United States	[47.60621,-122.33207]	5809844	city, village,...
Seattle, Western Australia	Unknown	Unknown	Unknown	Unknown	None	Unknown
Sebastopol, Ca	Sébastopol	Quebec	Canada	[45.12899,-72.3199]	6143349	parks,area, ...
Sebastopol, California	Sebastopol	California	United States	[38.40214,-122.82388]	5394165	city, village,...
Secaucus, New Jersey	Secaucus	New Jersey	United States	[40.79672,-74.05532]	5104504	city, village,...
Sevilla	Sevilla	Andalusia	Spain	[37.38283,-5.97317]	2510911	city, village,...
Shanghai	Shanghai	Shanghai Shi	China	[31.22222,121.45806]	1796236	city, village,...
Singapore	Republic of Singapore		Singapore	[1.36667,103.8]	1880251	country, state, region,...
Sisters, Oregon	Sisters Eagle Air Airport	Oregon	United States	[44.30091,-121.54264]	5554909	spot, building, farm
Springfield	Springfield	Illinois	United States	[39.80172,-89.64371]	4250542	city, village,...
Springfield, Illinois	Springfield	Illinois	United States	[39.80172,-89.64371]	4250542	city, village,...
Springfield, Massachusetts	Springfield	Massachusetts	United States	[42.10148,-72.58981]	4951788	city, village,...
Springfield, New Jersey	Springfield	New Jersey	United States	[40.69932,-74.32593]	7259028	city, village,...
St John, New Brunswick	Saint John	New Brunswick	Canada	[45.27271,-66.06766]	6138517	city, village,...
St Paul	Saint Paul	Minnesota	United States	[44.94441,-93.09327]	5045360	city, village,...
St Paul, MN	Saint Paul	Minnesota	United States	[44.94441,-93.09327]	5045360	city, village,...
St Paul, Minnesota	Saint Paul	Minnesota	United States	[44.94441,-93.09327]	5045360	city, village,...
St Petersburg	Saint Petersburg	St.-Petersburg	Russia	[59.93863,30.31413]	498817	city, village,...
Stanford, California	Stanford University	California	United States	[37.42716,-122.17024]	5398590	spot, building, farm
Sterling, VA	Sterling	Virginia	United States	[39.00622,-77.4286]	4787534	city, village,...
Strasbourg	Strasbourg	Alsace	France	[48.58392,7.74553]	2973783	city, village,...
Sudbury, Massachusetts	Sudbury	Massachusetts	United States	[42.38343,-71.41617]	4952320	city, village,...
Sydney	Sydney	New South Wales	Australia	[-33.86785,151.20732]	2147714	city, village,...
Syracuse	Syracuse	New York	United States	[43.04812,-76.14742]	5140405	city, village,...
Tel-Aviv	Tel Aviv	Tel Aviv	Israel	[32.08088,34.78057]	293397	city, village,...
The Hague	The Hague	South Holland	Netherlands	[52.07667,4.29861]	2747373	city, village,...
Thorndike, Maine	East Thorndike	Maine	United States	[44.59174,-69.20115]	4963396	city, village,...
Thousand Oaks	Thousand Oaks	California	United States	[34.17056,-118.83759]	5402405	city, village,...
Thousand Oaks, California	Thousand Oaks	California	United States	[34.17056,-118.83759]	5402405	city, village,...
Topeka	Topeka	Kansas	United States	[39.04833,-95.67804]	4280539	city, village,...
Topeka, Kansas	Topeka	Kansas	United States	[39.04833,-95.67804]	4280539	city, village,...
Torino	Torino	Piedmont	Italy	[45.07049,7.68682]	3165524	city, village,...
Toronto, Ontario	Toronto	Ontario	Canada	[43.70011,-79.4163]	6167865	city, village,...
Totowa, New Jersey	Totowa	New Jersey	United States	[40.9051,-74.20987]	5105455	city, village,...
Toulouse	Toulouse	Midi-Pyrénées	France	[43.60426,1.44367]	2972315	city, village,...
Tours	Tours	Centre	France	[47.38333,0.68333]	2972191	city, village,...
Trenton	Trenton	New Jersey	United States	[40.21705,-74.74294]	5105496	city, village,...
Trenton, New Jersey	Trenton	New Jersey	United States	[40.21705,-74.74294]	5105496	city, village,...
Tucson	Tucson	Arizona	United States	[32.22174,-110.92648]	5318313	city, village,...
Tucson, AZ	Tucson	Arizona	United States	[32.22174,-110.92648]	5318313	city, village,...
Tucson, Arizona	Tucson	Arizona	United States	[32.22174,-110.92648]	5318313	city, village,...
Tulsa, OK	Tulsa	Oklahoma	United States	[36.15398,-95.99277]	4553433	city, village,...
Tulsa, Oklahoma	Tulsa	Oklahoma	United States	[36.15398,-95.99277]	4553433	city, village,...
Tübingen	Tübingen	Baden-Württemberg	Germany	[48.52266,9.05222]	2820860	city, village,...
Tübingen	Tübingen	Baden-Württemberg	Germany	[48.52266,9.05222]	2820860	city, village,...
Uhrichsville, OH	Uhrichsville	Ohio	United States	[40.39312,-81.3465]	5174585	city, village,...
Uhrichsville, Ohio	Uhrichsville	Ohio	United States	[40.39312,-81.3465]	5174585	city, village,...
United States	United States		United States	[39.76,-98.5]	6252001	country, state, region,...
University Park, Pennsylvania	Penn State University Park Airport	Pennsylvania	United States	[40.84867,-77.84917]	5216775	spot, building, farm
Upper Saddle River	Upper Saddle River	New Jersey	United States	[41.05843,-74.09848]	5105733	city, village,...
Uppsala	Uppsala	Uppsala	Sweden	[59.85882,17.63889]	2666199	city, village,...
Upsala	Uppsala	Uppsala	Sweden	[59.85882,17.63889]	2666199	city, village,...
Urbana, IL	Urbana	Illinois	United States	[40.11059,-88.20727]	4914570	city, village,...
Utrecht	Utrecht	Utrecht	Netherlands	[52.09083,5.12222]	2745912	city, village,...
V Praze	University of Economics, Prague	Praha	Czechia	[50.08425,14.44125]	6693249	spot, building, farm
Valencia	Valencia	Carabobo	Venezuela	[10.16202,-68.00765]	3625549	city, village,...
Vancouver	Vancouver	British Columbia	Canada	[49.24966,-123.11934]	6173331	city, village,...
Venetiis	Unknown	Unknown	Unknown	Unknown	None	Unknown
Venezia	Venezia	Veneto	Italy	[45.43713,12.33265]	3164603	city, village,...
Vero Beach, FL	Vero Beach Municipal Airport	Florida	United States	[27.65275,-80.42048]	4176414	spot, building, farm
Vero Beach, Florida	Vero Beach Municipal Airport	Florida	United States	[27.65275,-80.42048]	4176414	spot, building, farm
Victoria, British Columbia	Victoria	British Columbia	Canada	[48.43294,-123.3693]	6174041	city, village,...
Vienna	Vienna	Vienna	Austria	[48.20849,16.37208]	2761369	city, village,...
Waco, Texas	Waco	Texas	United States	[31.54933,-97.14667]	4739526	city, village,...
Warszawa	Warsaw	Masovian Voivodeship	Poland	[52.22977,21.01178]	756135	city, village,...
Wash	Qimmat Sarī Bāsh Wāsh	As Sulaymānīyah	Iraq	[36.38174,44.86933]	7542530	mountain,hill,rock,... 
Washington City	Johnson City	Tennessee	United States	[36.31344,-82.35347]	4633419	city, village,...
Washington District of Columbia	Washington, D. C.	Washington, D.C.	United States	[38.89511,-77.03637]	4140963	city, village,...
Washington, D C	Washington, D. C.	Washington, D.C.	United States	[38.89511,-77.03637]	4140963	city, village,...
Watertown, MA	Watertown	Massachusetts	United States	[42.37093,-71.18283]	4954611	city, village,...
Weimar	Weimar	Thuringia	Germany	[50.9803,11.32903]	2812482	city, village,...
Weinheim	Weinheim	Baden-Württemberg	Germany	[49.54887,8.66697]	2812174	city, village,...
Wellesley, Massachusetts	Wellesley	Massachusetts	United States	[42.29649,-71.29256]	4954738	city, village,...
Westchester, Illinois	Westchester	Illinois	United States	[41.85059,-87.882]	4916140	city, village,...
Westport, CT	Westport	Connecticut	United States	[41.14149,-73.3579]	4845585	city, village,...
Wilmington, Delaware	Wilmington	Delaware	United States	[39.74595,-75.54659]	4145381	city, village,...
Winnipeg	Winnipeg	Manitoba	Canada	[49.8844,-97.14704]	6183235	city, village,...
Woods Hole, Massachusetts	Woods Hole	Massachusetts	United States	[41.5265,-70.67309]	4956152	city, village,...
Woodstock, Vermont	South Woodstock	Vermont	United States	[43.56563,-72.53232]	5241376	city, village,...
Worcester	Worcester	England	United Kingdom	[52.18935,-2.22001]	2633563	city, village,...
Worcester, Massachusetts	Worcester	Massachusetts	United States	[42.26259,-71.80229]	4956184	city, village,...
Würzburg	Würzburg	Bavaria	Germany	[49.79391,9.95121]	2805615	city, village,...
Yonkers-on-Hudson, New York	Unknown	Unknown	Unknown	Unknown	None	Unknown
Zagreb	Zagreb	Grad Zagreb	Croatia	[45.81444,15.97798]	3186886	city, village,...
Zürich	Zürich	Zurich	Switzerland	[47.36667,8.55]	2657896	city, village,...
Zürich	Zürich	Zurich	Switzerland	[47.36667,8.55]	2657896	city, village,...
n p	Unknown	Unknown	Unknown	Unknown	None	Unknown
stnbl	Unknown	Unknown	Unknown	Unknown	None	Unknown
Ṿarsha	Warsaw	Masovian Voivodeship	Poland	[52.22977,21.01178]	756135	city, village,...
Ṿarshe	Warsaw	Masovian Voivodeship	Poland	[52.22977,21.01178]	756135	city, village,...
Ṿilna	Vilnius	Vilniaus Apskritis	Lithuania	[54.68916,25.2798]	593116	city, village,...
Ṿilne	Vil’ne	Chernihivs’ka Oblast’	Ukraine	[51.59471,33.03148]	689185	city, village,...
Danbury, CT	Danbury	Connecticut	United States	[41.39482,-73.45401]	4832353	city, village,...
Edinburgi	Edinburgh	Scotland	United Kingdom	[55.95206,-3.19648]	2650225	city, village,...
Franklin, Ohio	Columbus	Ohio	United States	[39.96118,-82.99879]	4509177	city, village,...
Fredericton, New Brunswick	Fredericton	New Brunswick	Canada	[45.94541,-66.66558]	5957776	city, village,...
Hartford Connecticut	Hartford	Connecticut	United States	[41.76371,-72.68509]	4835797	city, village,...
Neapoli	Neápoli	Crete	Greece	[35.25627,25.60415]	256589	city, village,...
Newbury Park, California	Newbury Park	California	United States	[34.18417,-118.91065]	5376824	city, village,...
Port Hueneme, California	Port Hueneme	California	United States	[34.14778,-119.19511]	5384339	city, village,...
Santa Monica, California	Santa Monica	California	United States	[34.01945,-118.49119]	5393212	city, village,...
W Krakowie	Unknown	Unknown	Unknown	Unknown	None	Unknown
A Geneve	Genève	Geneva	Switzerland	[46.20222,6.14569]	2660646	city, village,...
A Lyon	Lyon	Rhône-Alpes	France	[45.74846,4.84671]	2996944	city, village,...
Alger	Algiers	Alger	Algeria	[36.7525,3.04197]	2507480	city, village,...
Ann Arbor, MI	Ann Arbor	Michigan	United States	[42.27756,-83.74088]	4984247	city, village,...
Basingstoke England	Basingstoke	England	United Kingdom	[51.26249,-1.08708]	2656192	city, village,...
Boston Massachusetts	Boston	Massachusetts	United States	[42.35843,-71.05977]	4930956	city, village,...
Bristol, PA	Bristol	Pennsylvania	United States	[40.10067,-74.85183]	5181688	city, village,...
Brockville, Ontario	Brockville Regional Tackaberry Airport	Ontario	Canada	[44.63947,-75.75022]	8531853	spot, building, farm
Buckingham	Buckingham Palace	England	United Kingdom	[51.50094,-0.14289]	2654409	spot, building, farm
Cambridge ; New York	Cambridge	New York	United States	[43.02813,-73.38122]	5111144	city, village,...
Cardiff	Cardiff	Wales	United Kingdom	[51.48,-3.18]	2653822	city, village,...
Carmel, IN	Carmel	Indiana	United States	[39.97837,-86.11804]	4255466	city, village,...
Cassel	Cassel	Nord-Pas-de-Calais	France	[50.80109,2.48527]	3028440	city, village,...
Catania	Catania	Sicily	Italy	[37.49223,15.07041]	2525068	city, village,...
Cedar Rapids, Ia	Cedar Rapids	Iowa	United States	[42.00833,-91.64407]	4850751	city, village,...
Charlotte, North Carolina	Charlotte	North Carolina	United States	[35.22709,-80.84313]	4460243	city, village,...
Charlotte, Vermont	Charlotte	Vermont	United States	[44.30977,-73.26096]	5234793	city, village,...
Charlottesville	Charlottesville	Virginia	United States	[38.02931,-78.47668]	4752031	city, village,...
Crystal Lake, IL	Crystal Lake	Illinois	United States	[42.24113,-88.3162]	4889229	city, village,...
Dayton, O	Dayton	Ohio	United States	[39.75895,-84.19161]	4509884	city, village,...
Düsseldorf	Düsseldorf	North Rhine-Westphalia	Germany	[51.22172,6.77616]	2934246	city, village,...
Em Lisboa	Unknown	Unknown	Unknown	Unknown	None	Unknown
Frankfurt	Frankfurt am Main	Hesse	Germany	[50.11552,8.68417]	2925533	city, village,...
Freiburg	Freiburg	Baden-Württemberg	Germany	[47.9959,7.85222]	2925177	city, village,...
Gainesville	Gainesville	Florida	United States	[29.65163,-82.32483]	4156404	city, village,...
Gloucester, Massachusetts	Gloucester	Massachusetts	United States	[42.61593,-70.66199]	4937829	city, village,...
Greenwich, CT	Greenwich	Connecticut	United States	[41.02649,-73.62846]	4835395	city, village,...
Groningen	Groningen	Groningen	Netherlands	[53.21917,6.56667]	2755251	city, village,...
Haarlem	Haarlem	North Holland	Netherlands	[52.38084,4.63683]	2755003	city, village,...
Hagerstown, Maryland	Hagerstown	Maryland	United States	[39.64176,-77.71999]	4357141	city, village,...
Hannoverae	Hannover	Lower Saxony	Germany	[52.37052,9.73322]	2910831	city, village,...
Hanover, New Hampshire	Hanover	New Hampshire	United States	[43.70229,-72.28954]	5087168	city, village,...
Harlow	Harlow	England	United Kingdom	[51.77655,0.11158]	2647461	city, village,...
Harrisburgh	Harrisburg	Pennsylvania	United States	[40.2737,-76.88442]	5192726	city, village,...
Houston	Houston	Texas	United States	[29.76328,-95.36327]	4699066	city, village,...
In Bologna	Bologna	Emilia-Romagna	Italy	[44.49381,11.33875]	3181928	city, village,...
Jerusalem	East Jerusalem	West Bank	Palestine	[31.78336,35.23388]	7303419	city, village,...
Kassel	Kassel	Hesse	Germany	[51.31667,9.5]	2892518	city, village,...
Kiev	Kiev	Kyiv City	Ukraine	[50.45466,30.5238]	703448	city, village,...
Lansing	Lansing	Michigan	United States	[42.73253,-84.55553]	4998830	city, village,...
Lisboa Occidental	Unknown	Unknown	Unknown	Unknown	None	Unknown
Littleton, Colorado	Littleton	Colorado	United States	[39.61332,-105.01665]	5429032	city, village,...
London England	London	England	United Kingdom	[51.50853,-0.12574]	2643743	city, village,...
London, United Kingdom	London	England	United Kingdom	[51.50853,-0.12574]	2643743	city, village,...
Lugduni	Leiden	South Holland	Netherlands	[52.15833,4.49306]	2751773	city, village,...
Lviv	L'viv	Lviv	Ukraine	[49.83826,24.02324]	702550	city, village,...
Lynn, Massachusetts	Lynn	Massachusetts	United States	[42.46676,-70.94949]	4942807	city, village,...
Lʹviv	Unknown	Unknown	Unknown	Unknown	None	Unknown
Mankato, MN	Mankato	Minnesota	United States	[44.16358,-93.9994]	5036420	city, village,...
Maryknoll, New York	Maryknoll Convent	New York	United States	[41.17982,-73.83013]	5126151	spot, building, farm
Mason, OH	Mason	Ohio	United States	[39.36006,-84.30994]	4517698	city, village,...
Miami, Florida	Miami	Florida	United States	[25.77427,-80.19366]	4164138	city, village,...
Misr	Arab Republic of Egypt		Egypt	[27,30]	357994	country, state, region,...
Montr©Øeal	Unknown	Unknown	Unknown	Unknown	None	Unknown
Munich	Munich	Bavaria	Germany	[48.13743,11.57549]	2867714	city, village,...
Naperville, IL	Naperville	Illinois	United States	[41.78586,-88.14729]	4903279	city, village,...
Neptune City, New Jersey	Neptune City	New Jersey	United States	[40.20011,-74.02792]	5101687	city, village,...
Neuchatel	Neuchâtel	Neuchâtel	Switzerland	[46.99179,6.931]	2659496	city, village,...
New Canaan, Connecticut	New Canaan	Connecticut	United States	[41.14676,-73.49484]	4839319	city, village,...
Newmarket, New Hampshire	Newmarket	New Hampshire	United States	[43.08286,-70.93506]	5090246	city, village,...
Newport, Rhode Island	Newport	Rhode Island	United States	[41.4901,-71.31283]	5223593	city, village,...
Niles, Illinois	Niles	Illinois	United States	[42.01892,-87.80284]	4903730	city, village,...
Nuyorḳ	New York City	New York	United States	[40.71427,-74.00597]	5128581	city, village,...
Old Saybrook, Connecticut	Old Saybrook	Connecticut	United States	[41.29177,-72.3762]	4840035	city, village,...
Oxford, England	Oxford	England	United Kingdom	[51.75222,-1.25596]	2640729	city, village,...
Pensacola, Florida	Pensacola	Florida	United States	[30.42131,-87.21691]	4168228	city, village,...
Petrograd	Saint Petersburg	St.-Petersburg	Russia	[59.93863,30.31413]	498817	city, village,...
Philadephia	Philadelphia	Pennsylvania	United States	[39.95233,-75.16379]	4560349	city, village,...
Portland Maine	Portland	Maine	United States	[43.66147,-70.25533]	4975802	city, village,...
Portland, Ore	Unknown	Unknown	Unknown	Unknown	None	Unknown
Reno	Reno	Nevada	United States	[39.52963,-119.8138]	5511077	city, village,...
Reno, Nevada	Reno	Nevada	United States	[39.52963,-119.8138]	5511077	city, village,...
Rochester, VT	Rochester	Vermont	United States	[43.87451,-72.80788]	5240382	city, village,...
Rock Island, Illinois	Moline	Illinois	United States	[41.5067,-90.51513]	4902476	city, village,...
Rocklin, California	Rocklin	California	United States	[38.79073,-121.23578]	5388319	city, village,...
Rostock	Rostock	Mecklenburg-Vorpommern	Germany	[54.0887,12.14049]	2844588	city, village,...
Saint Paul, Minnesota	Saint Paul	Minnesota	United States	[44.94441,-93.09327]	5045360	city, village,...
Salem, OR	Salem	Oregon	United States	[44.9429,-123.0351]	5750162	city, village,...
Savannah	Savannah	Georgia	United States	[32.08354,-81.09983]	4221552	city, village,...
Scottdale, Pennsylvania	Mount Pleasant/Scottdale Airport	Pennsylvania	United States	[40.10859,-79.54831]	5202339	spot, building, farm
Scranton	Scranton	Pennsylvania	United States	[41.40897,-75.66241]	5211303	city, village,...
São Paulo	São Paolo	São Paulo	Brazil	[-23.5475,-46.63611]	3448439	city, village,...
Taibei Shi	Taipei	Taipei	Taiwan	[25.04776,121.53185]	1668341	city, village,...
Tallahassee, Florida	Tallahassee	Florida	United States	[30.43826,-84.28073]	4174715	city, village,...
Toronto, Canada	Toronto	Ontario	Canada	[43.70011,-79.4163]	6167865	city, village,...
Tournai	Tournai	Walloon	Belgium	[50.60715,3.38932]	2785341	city, village,...
Tuscaloosa	Tuscaloosa	Alabama	United States	[33.20984,-87.56917]	4094455	city, village,...
Urbana-Champaign	Urbana	Illinois	United States	[40.11059,-88.20727]	4914570	city, village,...
Usa	United States		United States	[39.76,-98.5]	6252001	country, state, region,...
Versailles	Versailles	Île-de-France	France	[48.8,2.13333]	2969679	city, village,...
Vindobonae	Vienna	Vienna	Austria	[48.20849,16.37208]	2761369	city, village,...
Waltham, MA	Waltham	Massachusetts	United States	[42.37649,-71.23561]	4954380	city, village,...
Waltham, Massachusetts	Waltham	Massachusetts	United States	[42.37649,-71.23561]	4954380	city, village,...
Wellington	Wellington	Wellington	New Zealand	[-41.28664,174.77557]	2179537	city, village,...
Wheaton, IL	Wheaton	Illinois	United States	[41.86614,-88.10701]	4916288	city, village,...
İstānbūl	İstanbul	Istanbul	Turkey	[41.01384,28.94966]	745044	city, village,...
	Sandy Bluff Colonia	Texas	United States	[27.97641,-97.88917]	4726832	city, village,...
'S-Gravenhage	The Hague	South Holland	Netherlands	[52.07667,4.29861]	2747373	city, village,...
Allentown, Pennsylvania	Allentown	Pennsylvania	United States	[40.60843,-75.49018]	5178127	city, village,...
Bogotá	Bogotá	Bogota D.C.	Colombia	[4.60971,-74.08175]	3688689	city, village,...
City of Washington	Johnson City	Tennessee	United States	[36.31344,-82.35347]	4633419	city, village,...
Lincolnwood, Ill, USA	Unknown	Unknown	Unknown	Unknown	None	Unknown
Novato, Ca	Novato	California	United States	[38.10742,-122.5697]	5378044	city, village,...
S-Peterburg'	Saint Petersburg	St.-Petersburg	Russia	[59.93863,30.31413]	498817	city, village,...
San Mateo, California	San Mateo	California	United States	[37.56299,-122.32553]	5392423	city, village,...
Vratislaviae	Unknown	Unknown	Unknown	Unknown	None	Unknown
Bayrt	Unknown	Unknown	Unknown	Unknown	None	Unknown
Bloomington, IN	Bloomington	Indiana	United States	[39.16533,-86.52639]	4254679	city, village,...
Frankfort, Kentucky	Frankfort	Kentucky	United States	[38.20091,-84.87328]	4292188	city, village,...
Jersey City, New Jersey	Jersey City	New Jersey	United States	[40.72816,-74.07764]	5099836	city, village,...
New York ua	UA Cinema (historical)	New York	United States	[41.03389,-73.76389]	7252214	spot, building, farm
Parma	Parma	Emilia-Romagna	Italy	[44.79935,10.32618]	3171457	city, village,...
Parsippany, New Jersey	Parsippany	New Jersey	United States	[40.85788,-74.42599]	5102427	city, village,...
San Rafael, California	San Rafael	California	United States	[37.97353,-122.53109]	5392567	city, village,...
Xianggang	Xianggang	Guangdong	China	[23.38861,112.82111]	1914540	city, village,...
Yokohama	Yokohama	Kanagawa	Japan	[35.44778,139.6425]	1848354	city, village,...
Albany New York	Albany	New York	United States	[42.65258,-73.75623]	5106834	city, village,...
Berlin, Germany	Berlin	Berlin	Germany	[52.52437,13.41053]	2950159	city, village,...
Città di Castello	Castello di San Marino Città	San Marino	San Marino	[43.93333,12.45]	3345302	country, state, region,...
Crows Nest, New South Wales	Crows Nest	New South Wales	Australia	[-33.8265,151.2019]	2207821	city, village,...
Homewood, IL	Homewood	Illinois	United States	[41.55726,-87.6656]	4896353	city, village,...
Königsberg	Kaliningrad	Kaliningrad	Russia	[54.70649,20.51095]	554234	city, village,...
Paterson, New Jersey	Paterson	New Jersey	United States	[40.91677,-74.17181]	5102466	city, village,...
San Antonio, Texas	San Antonio	Texas	United States	[29.42412,-98.49363]	4726206	city, village,...
Springfield, Missouri	Springfield	Missouri	United States	[37.21533,-93.29824]	4409896	city, village,...
Ventura, California	Ventura	California	United States	[34.27834,-119.29317]	5405878	city, village,...
Akron, O	Akron	Ohio	United States	[41.08144,-81.51901]	5145476	city, village,...
Argentorati	Unknown	Unknown	Unknown	Unknown	None	Unknown
Athens, Georgia	Athens	Georgia	United States	[33.96095,-83.37794]	4180386	city, village,...
Auburn New York	Auburn	New York	United States	[42.93173,-76.56605]	5107505	city, village,...
Augusta	Augusta	Maine	United States	[44.31062,-69.77949]	4957003	city, village,...
Baile Átha Cliath Dublin	Dublin	Leinster	Ireland	[53.33306,-6.24889]	2964574	city, village,...
Bost	Bourg-du-Bost	Aquitaine	France	[45.26667,0.25]	3031013	city, village,...
Brantford, Ontario	Brantford	Ontario	Canada	[43.1334,-80.26636]	5907990	city, village,...
Carlsbad, California	Carlsbad	California	United States	[33.15809,-117.35059]	5334223	city, village,...
Carmel, Indiana	Carmel	Indiana	United States	[39.97837,-86.11804]	4255466	city, village,...
Carol Stream, Illinois	Carol Stream	Illinois	United States	[41.91253,-88.13479]	4886662	city, village,...
Charlottetown, Prince Edward Island	Charlottetown	Prince Edward Island	Canada	[46.23525,-63.12671]	5920288	city, village,...
Chester, Connecticut	Chester, Chester Airport	Connecticut	United States	[41.38389,-72.50583]	6297512	spot, building, farm
Clevedon	Clevedon	England	United Kingdom	[51.44057,-2.85745]	2652861	city, village,...
Columbus, OH	Columbus	Ohio	United States	[39.96118,-82.99879]	4509177	city, village,...
Confederate States of America	Unknown	Unknown	Unknown	Unknown	None	Unknown
Dallas, TX	Dallas	Texas	United States	[32.78306,-96.80667]	4684888	city, village,...
Dersa'det	Unknown	Unknown	Unknown	Unknown	None	Unknown
Dobbs Ferry, New York	Dobbs Ferry	New York	United States	[41.01454,-73.87264]	5115123	city, village,...
Farnham, Surrey, England	Farnham	England	United Kingdom	[51.21433,-0.79587]	2649660	city, village,...
Franklin, Tennessee	Franklin County	Tennessee	United States	[35.15496,-86.09218]	4623574	country, state, region,...
Freiburg iB	Unknown	Unknown	Unknown	Unknown	None	Unknown
Germany	Federal Republic of Germany		Germany	[51.5,10.5]	2921044	country, state, region,...
Great Britain	United Kingdom of Great Britain and Northern Ireland		United Kingdom	[54.75844,-2.69531]	2635167	country, state, region,...
Halis Saxonum	Unknown	Unknown	Unknown	Unknown	None	Unknown
Harmondsworth, Middlesex	Unknown	Unknown	Unknown	Unknown	None	Unknown
Helena, Mont (Rm 135, State Capitol, Helena 59620)	Unknown	Unknown	Unknown	Unknown	None	Unknown
Hoboken	Hoboken	New Jersey	United States	[40.74399,-74.03236]	5099133	city, village,...
Honolulu, Hawaii	Honolulu	Hawaii	United States	[21.30694,-157.85833]	5856195	city, village,...
Huntington, Indiana	Huntington	Indiana	United States	[40.8831,-85.49748]	4921725	city, village,...
Impresso en Lima	Unknown	Unknown	Unknown	Unknown	None	Unknown
In Napoli	Giugliano in Campania	Campania	Italy	[40.93188,14.19557]	3176059	city, village,...
Irvine, California	Irvine	California	United States	[33.66946,-117.82311]	5359777	city, village,...
Jackson, Mississippi	Jackson	Mississippi	United States	[32.29876,-90.18481]	4431410	city, village,...
Jersey City	Jersey City	New Jersey	United States	[40.72816,-74.07764]	5099836	city, village,...
Kalamazoo, Michigan	Kalamazoo	Michigan	United States	[42.29171,-85.58723]	4997787	city, village,...
Kingston	Kingston	Kingston	Jamaica	[17.99702,-76.79358]	3489854	city, village,...
Lake Geneva, WI	Lake Geneva	Wisconsin	United States	[42.59168,-88.43343]	5259169	city, village,...
Lancaster	Lincoln	Nebraska	United States	[40.8,-96.66696]	5072006	city, village,...
Lawrence	Lawrence		New Zealand	[-45.91667,169.7]	2188475	country, state, region,...
Lawrenceville, New Jersey	Lawrenceville	New Jersey	United States	[40.29733,-74.7296]	5100356	city, village,...
Leide	Leïde	Sud	Haiti	[18.33333,-74.25]	3722301	city, village,...
London printed	Unknown	Unknown	Unknown	Unknown	None	Unknown
Lynchburg, Virginia	Lynchburg	Virginia	United States	[37.41375,-79.14225]	4771075	city, village,...
Madison, WI	Madison	Wisconsin	United States	[43.07305,-89.40123]	5261457	city, village,...
Magdeburg	Magdeburg	Saxony-Anhalt	Germany	[52.12773,11.62916]	2874545	city, village,...
Maidenhead	Maidenhead	England	United Kingdom	[51.52279,-0.71986]	2643186	city, village,...
Mannheim	Mannheim	Baden-Württemberg	Germany	[49.49671,8.47955]	2873891	city, village,...
Mason, Ohio	Mason	Ohio	United States	[39.36006,-84.30994]	4517698	city, village,...
Meadville, Pennsylvania	Port Meadville Airport	Pennsylvania	United States	[41.62589,-80.21617]	5206946	spot, building, farm
Mechanicsburg, PA	Mechanicsburg	Pennsylvania	United States	[40.21426,-77.00859]	5200657	city, village,...
México, Distrito Federal	Mexico City	The Federal District	Mexico	[19.42847,-99.12766]	3530597	city, village,...
Middleton, Wisconsin	Middleton	Wisconsin	United States	[43.09722,-89.50429]	5262838	city, village,...
Millbrae, California	Millbrae	California	United States	[37.59855,-122.38719]	5373129	city, village,...
Minsḳ	Minsk	Minsk	Belarus	[53.9,27.56667]	625144	city, village,...
Mir	Tirich Mīr	Khyber Pakhtunkhwa	Pakistan	[36.255,71.83994]	1163320	mountain,hill,rock,... 
Montgomery	Montgomery	Alabama	United States	[32.36681,-86.29997]	4076784	city, village,...
Mountain View, CA	Mountain View	California	United States	[37.38605,-122.08385]	5375480	city, village,...
New Brunswick	New Brunswick	New Brunswick	Canada	[46.5001,-65.99878]	6087430	country, state, region,...
New Orleans, Louisiana	New Orleans	Louisiana	United States	[29.95465,-90.07507]	4335045	city, village,...
New York New York	New York City	New York	United States	[40.71427,-74.00597]	5128581	city, village,...
New-Haven	New Haven	Connecticut	United States	[41.30815,-72.92816]	4839366	city, village,...
New-York, New York	New York City	New York	United States	[40.71427,-74.00597]	5128581	city, village,...
Newark	Newark	New Jersey	United States	[40.73566,-74.17237]	5101798	city, village,...
Newburyport	Newburyport	Massachusetts	United States	[42.81259,-70.87728]	4945256	city, village,...
Northampton	Northampton	England	United Kingdom	[52.25,-0.88333]	2641430	city, village,...
Northvale, New Jersey	Northvale	New Jersey	United States	[41.00649,-73.94903]	5101967	city, village,...
Norwich, Connecticut	Norwich	Connecticut	United States	[41.52426,-72.07591]	4839843	city, village,...
Oakland	Oakland	California	United States	[37.80437,-122.2708]	5378538	city, village,...
Pacific Grove, CA	Pacific Grove	California	United States	[36.61774,-121.91662]	5380437	city, village,...
Palo Alto, CA	Palo Alto	California	United States	[37.44188,-122.14302]	5380748	city, village,...
Pavia	Pavia	Lombardy	Italy	[45.19205,9.15917]	3171366	city, village,...
Perth	Perth	Western Australia	Australia	[-31.95224,115.8614]	2063523	city, village,...
Pittsburg	Pittsburg County	Oklahoma	United States	[34.92391,-95.7484]	4548102	country, state, region,...
Port-au-Prince	Port-au-Prince	Ouest	Haiti	[18.53917,-72.335]	3718426	city, village,...
Quincy, Illinois	Quincy	Illinois	United States	[39.9356,-91.40987]	4247703	city, village,...
Reading	Reading	England	United Kingdom	[51.45625,-0.97113]	2639577	city, village,...
Richmond, Surrey	Unknown	Unknown	Unknown	Unknown	None	Unknown
Riverside, California	Riverside	California	United States	[33.95335,-117.39616]	5387877	city, village,...
Rockford, Illinois	Rockford	Illinois	United States	[42.27113,-89.094]	4907959	city, village,...
Santiago	Santiago	Santiago Metropolitan	Chile	[-33.45694,-70.64827]	3871336	city, village,...
Silver Spring, Maryland	Silver Spring	Maryland	United States	[38.99067,-77.02609]	4369596	city, village,...
Southampton	Southampton	England	United Kingdom	[50.90395,-1.40428]	2637487	city, village,...
Springhouse, Pennsylvania	Springhouse Dam	Pennsylvania	United States	[41.30176,-74.84795]	5213486	spot, building, farm
Stamford, CT	Stamford	Connecticut	United States	[41.05343,-73.53873]	4843564	city, village,...
Stamford, Connecticut	Stamford	Connecticut	United States	[41.05343,-73.53873]	4843564	city, village,...
Stirling	Stirling	Scotland	United Kingdom	[56.11903,-3.93682]	2636910	city, village,...
Strathroy, Ontario	Strathroy-Caradoc	Ontario	Canada	[42.90009,-81.53307]	6158028	country, state, region,...
Tempe, Arizona	Tempe	Arizona	United States	[33.41477,-111.90931]	5317058	city, village,...
Thousand Oaks, CA	Thousand Oaks	California	United States	[34.17056,-118.83759]	5402405	city, village,...
Toledo, Ohio	Toledo	Ohio	United States	[41.66394,-83.55521]	5174035	city, village,...
U Beogradu	Unknown	Unknown	Unknown	Unknown	None	Unknown
U Zagrebu	Sveučilište u Zagrebu	Grad Zagreb	Croatia	[45.81057,15.96985]	7279862	spot, building, farm
Utica	Utica	New York	United States	[43.1009,-75.23266]	5142056	city, village,...
Vicksburg, Mississippi	Vicksburg	Mississippi	United States	[32.35265,-90.87788]	4449620	city, village,...
West Chester, PA	West Chester	Pennsylvania	United States	[39.96066,-75.60549]	4562144	city, village,...
Westminster, Maryland	Westminster	Maryland	United States	[39.57538,-76.99581]	4373238	city, village,...
Yerushalayim	West Jerusalem	Jerusalem District	Israel	[31.78199,35.21961]	7498240	city, village,...
Zaragoza	Zaragoza	Aragon	Spain	[41.65606,-0.87734]	3104324	city, village,...
t'Amsterdam	't Nopeind	North Holland	Netherlands	[52.41001,4.96333]	2746241	city, village,...
& London	Sandy Bluff Colonia	Texas	United States	[27.97641,-97.88917]	4726832	city, village,...
's Gravenhage	The Hague	South Holland	Netherlands	[52.07667,4.29861]	2747373	city, village,...
(London)	London	England	United Kingdom	[51.50853,-0.12574]	2643743	city, village,...
A Bruxelles	Brussels	Brussels Capital	Belgium	[50.85045,4.34878]	2800866	city, village,...
A Québec	Québec	Quebec	Canada	[46.81228,-71.21454]	6325494	city, village,...
A Rouen	Rouen	Upper Normandy	France	[49.44313,1.09932]	2982652	city, village,...
Aarau	Aarau	Aargau	Switzerland	[47.39254,8.04422]	2661881	city, village,...
Abingdon	Abingdon Airport	Queensland	Australia	[-17.66684,143.19992]	8288517	spot, building, farm
Accra, Ghana	Accra	Greater Accra	Ghana	[5.55602,-0.1969]	2306104	city, village,...
Alameda, CA	Fremont	California	United States	[37.54827,-121.98857]	5350734	city, village,...
Albuquerque, New Mexico	Albuquerque	New Mexico	United States	[35.08449,-106.65114]	5454711	city, village,...
Amersham	Amersham	Saint Anthony	Montserrat	[16.7,-62.2]	3578253	city, village,...
Amersham, Eng	Amersham	England	United Kingdom	[51.66667,-0.61667]	2657356	city, village,...
Amstelaedami	Unknown	Unknown	Unknown	Unknown	None	Unknown
Amsterdam, Netherlands	Amsterdam	North Holland	Netherlands	[52.37403,4.88969]	2759794	city, village,...
Andover Massachusetts	North Andover	Massachusetts	United States	[42.6987,-71.13506]	4832272	city, village,...
Andover, Massachusetts	North Andover	Massachusetts	United States	[42.6987,-71.13506]	4832272	city, village,...
Arlington Heights, Illinois	Arlington Heights	Illinois	United States	[42.08836,-87.98063]	4883555	city, village,...
Arlington, Virginia	Arlington	Virginia	United States	[38.88101,-77.10428]	4744709	city, village,...
Ashland, OH	Ashland County Airport	Ohio	United States	[40.90242,-82.25673]	5146063	spot, building, farm
Ashland, OR	Ashland	Oregon	United States	[42.19458,-122.70948]	5711789	city, village,...
Atglen, PA	Atglen	Pennsylvania	United States	[39.94927,-75.97356]	4556341	city, village,...
Athēna	Athens	Attica	Greece	[37.97945,23.71622]	264371	city, village,...
Atlantic Highlands, New Jersey	Atlantic Highlands	New Jersey	United States	[40.40789,-74.03431]	5095312	city, village,...
Au Port-au-Prince	Port-au-Prince	Ouest	Haiti	[18.53917,-72.335]	3718426	city, village,...
Auckland, New Zealand	Auckland	Auckland	New Zealand	[-36.86667,174.76667]	2193733	city, village,...
Avon, MA	Avon	Massachusetts	United States	[42.13066,-71.04116]	4929476	city, village,...
Baile Átha Cliath	Dublin	Leinster	Ireland	[53.33306,-6.24889]	2964574	city, village,...
Bangkok	Bangkok	Bangkok	Thailand	[13.75398,100.50144]	1609350	city, village,...
Bangor	Bangor	N Ireland	United Kingdom	[54.65338,-5.66895]	2656396	city, village,...
Basileae	Unknown	Unknown	Unknown	Unknown	None	Unknown
Basingstoke, Hampshire	Basingstoke	England	United Kingdom	[51.26249,-1.08708]	2656192	city, village,...
Batavia	Jakarta	Jakarta Raya	Indonesia	[-6.21462,106.84513]	1642911	city, village,...
Bath, United Kingdom	Bath	England	United Kingdom	[51.3751,-2.36172]	2656173	city, village,...
Baton Rouge, LA	Baton Rouge	Louisiana	United States	[30.45075,-91.15455]	4315588	city, village,...
Bayrūt	Ra’s Bayrūt	Beyrouth	Lebanon	[33.9,35.48333]	268743	city, village,...
Beaverton, OR	Beaverton	Oregon	United States	[45.48706,-122.80371]	5713376	city, village,...
Belleville, Ontario	Belleville	Ontario	Canada	[44.16682,-77.38277]	5897884	city, village,...
Bellingham, Washington	Bellingham	Washington	United States	[48.75955,-122.48822]	5786899	city, village,...
Besançon	Besançon	Franche-Comté	France	[47.24878,6.01815]	3033123	city, village,...
Beverly Hills	Beverly Hills	California	United States	[34.07362,-118.40036]	5328041	city, village,...
Beverly Hills, CA	Beverly Hills	California	United States	[34.07362,-118.40036]	5328041	city, village,...
Beyrouth	Ra’s Bayrūt	Beyrouth	Lebanon	[33.9,35.48333]	268743	city, village,...
Bilbao	Bilbao	Basque Country	Spain	[43.26271,-2.92528]	3128026	city, village,...
Birmingham, AL	Birmingham	Alabama	United States	[33.52066,-86.80249]	4049979	city, village,...
Birmingham, United Kingdom	Birmingham	England	United Kingdom	[52.48142,-1.89983]	2655603	city, village,...
Bogotá	Bogotá	Bogota D.C.	Colombia	[4.60971,-74.08175]	3688689	city, village,...
Borna-Leipzig	Borna	Saxony	Germany	[51.12416,12.49639]	2946172	city, village,...
Boston, USA	Boston	Massachusetts	United States	[42.35843,-71.05977]	4930956	city, village,...
Bowie, Maryland	Bowie	Maryland	United States	[38.94278,-76.73028]	4349159	city, village,...
Bradford	Bradford	England	United Kingdom	[53.79391,-1.75206]	2654993	city, village,...
Brentwood, Tennessee	Brentwood	Tennessee	United States	[36.03312,-86.78278]	4608408	city, village,...
Brescia	Brescia	Lombardy	Italy	[45.53558,10.21472]	3181554	city, village,...
Bridgehampton, New York	Bridgehampton	New York	United States	[40.93788,-72.30092]	5110130	city, village,...
Bristol, United Kingdom	Bristol	England	United Kingdom	[51.45523,-2.59665]	2654675	city, village,...
Brookfield, CT	Brookfield	Connecticut	United States	[41.48259,-73.40957]	5282901	city, village,...
Brookfield, Vt, USA	Brookfield	Vermont	United States	[44.04229,-72.60344]	5234220	city, village,...
Bruxellis	Unknown	Unknown	Unknown	Unknown	None	Unknown
Brünn	Brno	South Moravian	Czechia	[49.19522,16.60796]	3078610	city, village,...
Buenos Aires, Argentina	Buenos Aires	Buenos Aires F.D.	Argentina	[-34.61315,-58.37723]	3435910	city, village,...
Burbank, California	Burbank	California	United States	[34.18084,-118.30897]	5331835	city, village,...
Burlington Vermont	Burlington	Vermont	United States	[44.47588,-73.21207]	5234372	city, village,...
Burlington, Iowa	Burlington	Iowa	United States	[40.80754,-91.11292]	4849826	city, village,...
Burr Ridge, Illinois	Burr Ridge	Illinois	United States	[41.74892,-87.91839]	4886090	city, village,...
Cadiz	Cadiz	Andalusia	Spain	[36.52978,-6.29465]	2520600	city, village,...
Calgary	Calgary	Alberta	Canada	[51.05011,-114.08529]	5913490	city, village,...
California	Estado de Baja California	Baja California	Mexico	[30,-115]	4017700	country, state, region,...
Cambridge, England	Cambridge	England	United Kingdom	[52.2,0.11667]	2653941	city, village,...
Cambridge, Mass, USA	Cambridge	Massachusetts	United States	[42.3751,-71.10561]	4931972	city, village,...
Canada	Canada		Canada	[60.10867,-113.64258]	6251999	country, state, region,...
Canberra	Canberra	Australian Capital Territory	Australia	[-35.28346,149.12807]	2172517	city, village,...
Cantabrigiae	Unknown	Unknown	Unknown	Unknown	None	Unknown
Carlisle	Carlisle	England	United Kingdom	[54.8951,-2.9382]	2653775	city, village,...
Carlsbad, CA	Carlsbad	California	United States	[33.15809,-117.35059]	5334223	city, village,...
Carrollton, TX	Carrollton	Texas	United States	[32.95373,-96.89028]	4679195	city, village,...
Carrollton, Texas	Carrollton	Texas	United States	[32.95373,-96.89028]	4679195	city, village,...
Carthage, IL	Carthage	Illinois	United States	[40.41643,-91.13625]	4886716	city, village,...
Cedar Rapids, Iowa	Cedar Rapids	Iowa	United States	[42.00833,-91.64407]	4850751	city, village,...
Center City, Minnesota	City of Center City	Minnesota	United States	[45.39405,-92.81428]	5020732	country, state, region,...
Chambersburg, Pennsylvania	Chambersburg	Pennsylvania	United States	[39.93759,-77.6611]	4557109	city, village,...
Charleston South Carolina	Charleston	South Carolina	United States	[32.77657,-79.93092]	4574324	city, village,...
Chatham, Ontario	Chatham-Kent	Ontario	Canada	[42.40009,-82.1831]	5920450	country, state, region,...
Chattanooga, Tennessee	Chattanooga	Tennessee	United States	[35.04563,-85.30968]	4612862	city, village,...
Chester Springs, Pennsylvania	Chester Springs	Pennsylvania	United States	[40.0951,-75.61687]	5184082	city, village,...
Chicago, New York	Chicago Hall	New York	United States	[41.68833,-73.89833]	7203776	spot, building, farm
Chichester, United Kingdom	Chichester	England	United Kingdom	[50.83673,-0.78003]	2653192	city, village,...
Chico, California	Chico	California	United States	[39.72849,-121.83748]	5336269	city, village,...
Claremont, New Hampshire	Claremont	New Hampshire	United States	[43.37674,-72.34676]	5084633	city, village,...
Cleveland Ohio	Cleveland	Ohio	United States	[41.4995,-81.69541]	5150529	city, village,...
Cleveland, OH	Cleveland	Ohio	United States	[41.4995,-81.69541]	5150529	city, village,...
Clyde, O	Firth of Clyde	Scotland	United Kingdom	[55.66667,-5]	2652732	stream, lake, ...
Coblenz	Coblenz	Otjozondjupa	Namibia	[-20.1,18.16667]	3358131	city, village,...
Cobourg, Ontario	Cobourg	Ontario	Canada	[43.95977,-78.16515]	5924579	city, village,...
College Station	College Station	Texas	United States	[30.62798,-96.33441]	4682464	city, village,...
Collegeville, Minnesota	Township of Collegeville	Minnesota	United States	[45.54331,-94.44471]	5021786	country, state, region,...
Collingwood, Victoria	Collingwood	Victoria	Australia	[-37.8,144.98333]	2171000	city, village,...
Cologne	Köln	North Rhine-Westphalia	Germany	[50.93333,6.95]	2886242	city, village,...
Colombo	Colombo	Western	Sri Lanka	[6.93194,79.84778]	1248991	city, village,...
Colorado Springs	Colorado Springs	Colorado	United States	[38.83388,-104.82136]	5417598	city, village,...
Concord New Hampshire	Concord	New Hampshire	United States	[43.20814,-71.53757]	5084868	city, village,...
Copenhague	Copenhagen	Capital Region	Denmark	[55.67594,12.56553]	2618425	city, village,...
Cork	Cork	Munster	Ireland	[51.89797,-8.47061]	2965140	city, village,...
Danzig	Gdańsk	Pomeranian Voivodeship	Poland	[54.35205,18.64637]	3099434	city, village,...
Davenport, Iowa	Davenport	Iowa	United States	[41.52364,-90.57764]	4853423	city, village,...
Dedham, Massachusetts	Dedham	Massachusetts	United States	[42.24177,-71.16616]	4934664	city, village,...
Deephaven, MN	Deephaven	Minnesota	United States	[44.92969,-93.52246]	5024044	city, village,...
Deerfield Beach, FL	Deerfield Beach	Florida	United States	[26.31841,-80.09977]	4153071	city, village,...
Denton, Texas	Denton	Texas	United States	[33.21484,-97.13307]	4685907	city, village,...
Dersa'adet	Unknown	Unknown	Unknown	Unknown	None	Unknown
Dordrecht, The Netherlands	Unknown	Unknown	Unknown	Unknown	None	Unknown
Dorpat	Tartu	Tartu	Estonia	[58.38062,26.72509]	588335	city, village,...
Dublin, Ireland	Dublin	Leinster	Ireland	[53.33306,-6.24889]	2964574	city, village,...
Duluth, Minnesota	Duluth	Minnesota	United States	[46.78327,-92.10658]	5024719	city, village,...
Dundee	Dundee	Scotland	United Kingdom	[56.46913,-2.97489]	2650752	city, village,...
Durham, Eng	Durham	England	United Kingdom	[54.77676,-1.57566]	2650628	city, village,...
East Stroudsburg, Pennsylvania	East Stroudsburg	Pennsylvania	United States	[40.99954,-75.18129]	5188075	city, village,...
Eau Claire, Wisconsin	Eau Claire	Wisconsin	United States	[44.81135,-91.49849]	5251436	city, village,...
Edina, MN	Edina	Minnesota	United States	[44.88969,-93.34995]	5025264	city, village,...
Edinburg	Edinburgh	Scotland	United Kingdom	[55.95206,-3.19648]	2650225	city, village,...
El Paso, Texas	El Paso	Texas	United States	[31.75872,-106.48693]	5520993	city, village,...
Elberfeld	Elberfeld	North Rhine-Westphalia	Germany	[51.25627,7.14816]	2931276	city, village,...
Elgin, IL	Elgin	Illinois	United States	[42.03725,-88.28119]	4890864	city, village,...
Elgin, IL, USA	Elgin	Illinois	United States	[42.03725,-88.28119]	4890864	city, village,...
Elkhart, Indiana	Elkhart	Indiana	United States	[41.68199,-85.97667]	4919987	city, village,...
En Madrid	Madrid	Madrid	Spain	[40.4165,-3.70256]	3117735	city, village,...
En Mexico	Mexico		Mexico	[23,-102]	3996063	country, state, region,...
Enfield	Enfield	South Australia	Australia	[-34.8526,138.60255]	6621335	city, village,...
England	London	England	United Kingdom	[51.50853,-0.12574]	2643743	city, village,...
Englewood Cliffs	Englewood Cliffs	New Jersey	United States	[40.88538,-73.95236]	5097677	city, village,...
Erfurt	Erfurt	Thuringia	Germany	[50.9787,11.03283]	2929670	city, village,...
Erie, Pennsylvania	Erie	Pennsylvania	United States	[42.12922,-80.08506]	5188843	city, village,...
Evanston	Evanston	Illinois	United States	[42.04114,-87.69006]	4891382	city, village,...
Exeter, New Hampshire	Exeter	New Hampshire	United States	[42.98148,-70.94783]	5085966	city, village,...
Fairfax, VA	Reston	Virginia	United States	[38.96872,-77.3411]	4781530	city, village,...
Fall River, Massachusetts	Fall River	Massachusetts	United States	[41.70149,-71.15505]	4936159	city, village,...
Farmington Hills, MI	Farmington Hills	Michigan	United States	[42.48531,-83.37716]	4992523	city, village,...
Farnham	Farnham	Quebec	Canada	[45.28338,-72.98244]	5951644	city, village,...
Farnham, Surrey	Farnham	England	United Kingdom	[51.21433,-0.79587]	2649660	city, village,...
Feltham	Feltham Cone	Queensland	Australia	[-19.43178,147.06776]	2166806	mountain,hill,rock,... 
Flagstaff, Arizona	Flagstaff	Arizona	United States	[35.19807,-111.65127]	5294810	city, village,...
Florentiae	Florence	Tuscany	Italy	[43.77925,11.24626]	3176959	city, village,...
Footscray, Victoria	Footscray	Victoria	Australia	[-37.8,144.9]	2166370	city, village,...
Fort Leavenworth, Kansas	Fort Leavenworth	Kansas	United States	[39.35684,-94.91529]	7267478	spot, building, farm
Fort Wayne, IN	Fort Wayne	Indiana	United States	[41.1306,-85.12886]	4920423	city, village,...
Fort Worth, TX	Fort Worth	Texas	United States	[32.72541,-97.32085]	4691930	city, village,...
Foster City, California	Foster City	California	United States	[37.55855,-122.27108]	5350159	city, village,...
Francofurti	Unknown	Unknown	Unknown	Unknown	None	Unknown
Franklin, O	Columbus	Ohio	United States	[39.96118,-82.99879]	4509177	city, village,...
Frauenfeld	Frauenfeld	Thurgau	Switzerland	[47.55816,8.89854]	2660727	city, village,...
Frederick, Maryland	Frederick	Maryland	United States	[39.41427,-77.41054]	4355585	city, village,...
Fredericton New Brunswick	Fredericton	New Brunswick	Canada	[45.94541,-66.66558]	5957776	city, village,...
Freedom, CA	Freedom	California	United States	[36.9394,-121.78113]	5350678	city, village,...
Freedom, California	Freedom	California	United States	[36.9394,-121.78113]	5350678	city, village,...
Freiburg i B	Unknown	Unknown	Unknown	Unknown	None	Unknown
Fresno, California	Fresno	California	United States	[36.74773,-119.77237]	5350937	city, village,...
Gainesville, Florida	Gainesville	Florida	United States	[29.65163,-82.32483]	4156404	city, village,...
Gaithersburg, Maryland	Gaithersburg	Maryland	United States	[39.14344,-77.20137]	4355843	city, village,...
Galesburg, Illinois	Galesburg	Illinois	United States	[40.94782,-90.37124]	4893392	city, village,...
Geneva, Switzerland	Genève	Geneva	Switzerland	[46.20222,6.14569]	2660646	city, village,...
Genevae	Unknown	Unknown	Unknown	Unknown	None	Unknown
Gettysburg	Gettysburg Seamount			[36.53333,-11.61667]	2522621	undersea
Glencoe, Illinois	Glencoe	Illinois	United States	[42.13503,-87.75812]	4894078	city, village,...
Godalming	Godalming	England	United Kingdom	[51.18462,-0.61725]	2648372	city, village,...
Goderich, Ontario	Goderich	Ontario	Canada	[43.75008,-81.71648]	5962442	city, village,...
Great Neck, New York	Great Neck	New York	United States	[40.80066,-73.72846]	5119218	city, village,...
Greendale, WI	Greendale	Wisconsin	United States	[42.94057,-87.99592]	5255057	city, village,...
Greenfield, Massachusetts	Greenfield	Massachusetts	United States	[42.58759,-72.59953]	4938378	city, village,...
Greenville, South Carolina	Greenville	South Carolina	United States	[34.85262,-82.39401]	4580543	city, village,...
Gretna, Louisiana	Gretna	Louisiana	United States	[29.91465,-90.05396]	4326575	city, village,...
Guatemala	Republic of Guatemala		Guatemala	[15.5,-90.25]	3595528	country, state, region,...
Guelph, Ontario	Guelph	Ontario	Canada	[43.54594,-80.25599]	5967629	city, village,...
Guildford	Guildford	England	United Kingdom	[51.23536,-0.57427]	2647793	city, village,...
Guilford, CT	Guilford	Connecticut	United States	[41.28899,-72.68176]	4835512	city, village,...
Göteborg	Göteborg	Västra Götaland	Sweden	[57.70716,11.96679]	2711537	city, village,...
HOVE	Hove	England	United Kingdom	[50.83088,-0.1672]	2646504	city, village,...
Halae	Halle (Saale)	Saxony-Anhalt	Germany	[51.5,12]	2911522	city, village,...
Halle adS	Halle (Saale)	Saxony-Anhalt	Germany	[51.5,12]	2911522	city, village,...
Hamden, Connecticut	Hamden	Connecticut	United States	[41.39593,-72.89677]	4835654	city, village,...
Hamilton	Hamilton	Waikato	New Zealand	[-37.78333,175.28333]	2190324	city, village,...
Hampton Falls, New Hampshire	Hampton Falls	New Hampshire	United States	[42.9162,-70.86366]	5087122	city, village,...
Hanover	Parish of Hanover	Hanover Parish	Jamaica	[18.41667,-78.13333]	3490145	country, state, region,...
Hansŏng	T’aegan-dong		North Korea	[37.86667,125.5]	1868789	city, village,...
Hauniae	Unknown	Unknown	Unknown	Unknown	None	Unknown
Haverhill, Massachusetts	Haverhill	Massachusetts	United States	[42.7762,-71.07728]	4939085	city, village,...
Hawthorn, Vic, Australia	Hawthorn East	Victoria	Australia	[-37.82484,145.0464]	7932627	city, village,...
Hawthorn, Victoria	Hawthorn East	Victoria	Australia	[-37.82484,145.0464]	7932627	city, village,...
Hawthorne, New Jersey	Hawthorne	New Jersey	United States	[40.94926,-74.15375]	5098909	city, village,...
Helena, Mont (State Capitol, Helena 59620)	Unknown	Unknown	Unknown	Unknown	None	Unknown
Helsinki	Helsinki	Southern Finland	Finland	[60.16952,24.93545]	658225	city, village,...
Hershey	Hershey Ridge		Antarctica	[-77.66667,-147.25]	6634850	mountain,hill,rock,... 
Hillsboro, Oregon	Hillsboro	Oregon	United States	[45.52289,-122.98983]	5731371	city, village,...
Hillsdale, New Jersey	Hillsdale	New Jersey	United States	[41.0026,-74.04042]	5099087	city, village,...
Hillside, NJ, USA	Township of Hillside	New Jersey	United States	[40.69602,-74.22866]	5099114	country, state, region,...
Hingham, MA	Hingham	Massachusetts	United States	[42.24177,-70.88977]	4939549	city, village,...
Hinsdale, Illinois	Hinsdale	Illinois	United States	[41.80086,-87.93701]	4896012	city, village,...
Hoboken, NJ, USA	Hoboken	New Jersey	United States	[40.74399,-74.03236]	5099133	city, village,...
Hollywood, California	Hollywood	California	United States	[34.09834,-118.32674]	5357527	city, village,...
Holyoke, Massachusetts	Holyoke	Massachusetts	United States	[42.20426,-72.6162]	4939783	city, village,...
Hong Kong, China	Hong Kong		Hong Kong	[22.28552,114.15769]	1819729	city, village,...
Hongkong	Hong Kong		Hong Kong	[22.28552,114.15769]	1819729	city, village,...
Hopewell, New Jersey	Hopewell	New Jersey	United States	[40.38927,-74.76183]	5099312	city, village,...
Houndmills, Basingstoke	Unknown	Unknown	Unknown	Unknown	None	Unknown
Houndmills, Basingstoke, Hampshire, United Kingdom	Unknown	Unknown	Unknown	Unknown	None	Unknown
Houston, TX	Houston	Texas	United States	[29.76328,-95.36327]	4699066	city, village,...
Hove, East Sussex	Unknown	Unknown	Unknown	Unknown	None	Unknown
Huntington Beach	Huntington Beach	California	United States	[33.6603,-117.99923]	5358705	city, village,...
Huntington, New York	Huntington	New York	United States	[40.86815,-73.42568]	5121636	city, village,...
Ienae	Unknown	Unknown	Unknown	Unknown	None	Unknown
In Fiorenza	Unknown	Unknown	Unknown	Unknown	None	Unknown
In Modena	Serramazzoni	Emilia-Romagna	Italy	[44.42735,10.79055]	3166665	city, village,...
In Padova	San Giorgio in Bosco	Veneto	Italy	[45.58863,11.80736]	3168298	city, village,...
In Parigi	Parigi	Andhra Pradesh	India	[13.89263,77.45973]	1260312	city, village,...
Independence, Missouri	Independence	Missouri	United States	[39.09112,-94.41551]	4391812	city, village,...
Iola, WI	Iola	Wisconsin	United States	[44.50803,-89.13067]	5257499	city, village,...
Iowa City, Iowa	Iowa City	Iowa	United States	[41.66113,-91.53017]	4862034	city, village,...
Irvine, CA	Irvine	California	United States	[33.66946,-117.82311]	5359777	city, village,...
Irving, Texas	Irving	Texas	United States	[32.81402,-96.94889]	4700168	city, village,...
Irvington-on-Hudson, New York	Unknown	Unknown	Unknown	Unknown	None	Unknown
Istnbl	Unknown	Unknown	Unknown	Unknown	None	Unknown
Jacksonville, Florida	Jacksonville	Florida	United States	[30.33218,-81.65565]	4160021	city, village,...
Jakarta	Jakarta	Jakarta Raya	Indonesia	[-6.21462,106.84513]	1642911	city, village,...
Jefferson City, Missouri	Jefferson City	Missouri	United States	[38.5767,-92.17352]	4392388	city, village,...
Johannesburg	Johannesburg	Gauteng	South Africa	[-26.20227,28.04363]	993800	city, village,...
Kampen	Kampen	Overijssel	Netherlands	[52.555,5.91111]	2753106	city, village,...
Kbenhavn	Unknown	Unknown	Unknown	Unknown	None	Unknown
Keene, New Hampshire	Keene	New Hampshire	United States	[42.93369,-72.27814]	5088262	city, village,...
Kempten	Kempten (Allgäu)	Bavaria	Germany	[47.72674,10.31389]	2891621	city, village,...
Kent, Ohio	Kent	Ohio	United States	[41.15367,-81.35789]	5159537	city, village,...
Kingston Ontario	Kingston	Ontario	Canada	[44.22976,-76.48098]	5992500	city, village,...
Kirksville, Missouri	Kirksville Regional Airport	Missouri	United States	[40.0933,-92.5412]	5054475	spot, building, farm
Kjbenhavn	Unknown	Unknown	Unknown	Unknown	None	Unknown
Knoxville	Knoxville	Tennessee	United States	[35.96064,-83.92074]	4634946	city, village,...
Knoxville, Tennessee	Knoxville	Tennessee	United States	[35.96064,-83.92074]	4634946	city, village,...
Kobenhavn	Copenhagen	Capital Region	Denmark	[55.67594,12.56553]	2618425	city, village,...
Kopenhagen	Copenhagen	Capital Region	Denmark	[55.67594,12.56553]	2618425	city, village,...
Köln	Köln	North Rhine-Westphalia	Germany	[50.93333,6.95]	2886242	city, village,...
Kraków	Kraków	Lesser Poland Voivodeship	Poland	[50.06143,19.93658]	3094802	city, village,...
La Jolla, California	La Jolla	California	United States	[32.84727,-117.2742]	5363943	city, village,...
La Salle, Illinois	La Salle	Illinois	United States	[41.33337,-89.09175]	4898875	city, village,...
Lafayette, Indiana	Lafayette	Indiana	United States	[40.4167,-86.87529]	4922462	city, village,...
Lake Mary, Florida	Lake Mary	Florida	United States	[28.75888,-81.31784]	4161373	city, village,...
Lakewood, Colorado	Lakewood	Colorado	United States	[39.70471,-105.08137]	5427946	city, village,...
Lamoni, Iowa	Lamoni	Iowa	United States	[40.62278,-93.93412]	4864105	city, village,...
Lanciano	Lanciano	Abruzzo	Italy	[42.22638,14.39582]	3175173	city, village,...
Langensalza	Bad Langensalza	Thuringia	Germany	[51.10771,10.646]	2953413	city, village,...
Las Vegas, NV	Las Vegas	Nevada	United States	[36.17497,-115.13722]	5506956	city, village,...
Las Vegas, Nevada	Las Vegas	Nevada	United States	[36.17497,-115.13722]	5506956	city, village,...
Laurinburg, North Carolina	Laurinburg-Maxton Airport	North Carolina	United States	[34.79531,-79.36942]	4475348	spot, building, farm
Lebanon, Ohio	Lebanon	Ohio	United States	[39.43534,-84.20299]	4516412	city, village,...
Leipzig und Berlin	Unknown	Unknown	Unknown	Unknown	None	Unknown
Leipzig, Germany	Leipzig	Saxony	Germany	[51.33962,12.37129]	2879139	city, village,...
Leningrad	Leningradskaya Oblast’	Leningrad	Russia	[60,32]	536199	country, state, region,...
Lewiston, Maine	Lewiston	Maine	United States	[44.10035,-70.21478]	4969398	city, village,...
Leyde	Leiden	South Holland	Netherlands	[52.15833,4.49306]	2751773	city, village,...
Liguori, Missouri	Liguori Lake	Missouri	United States	[38.34005,-90.41012]	4395273	stream, lake, ...
Lilburn, GA	Lilburn	Georgia	United States	[33.8901,-84.14297]	4205724	city, village,...
Lincoln, NE	Lincoln	Nebraska	United States	[40.8,-96.66696]	5072006	city, village,...
Little Rock	Little Rock	Arkansas	United States	[34.74648,-92.28959]	4119403	city, village,...
Logan, Utah	Logan	Utah	United States	[41.73549,-111.83439]	5777544	city, village,...
Londinum	Unknown	Unknown	Unknown	Unknown	None	Unknown
London, Eng	London	England	United Kingdom	[51.50853,-0.12574]	2643743	city, village,...
Londra	London	England	United Kingdom	[51.50853,-0.12574]	2643743	city, village,...
Long Island City, New York	Long Island City	New York	United States	[40.74482,-73.94875]	5125125	city, village,...
Loughborough	Loughborough Lake	Ontario	Canada	[44.44735,-76.41145]	6060741	stream, lake, ...
Loveland, Colorado	Loveland	Colorado	United States	[40.39776,-105.07498]	5579368	city, village,...
Lowell	Lowell	Massachusetts	United States	[42.63342,-71.31617]	4942618	city, village,...
Lucca	Lucca	Tuscany	Italy	[43.8497,10.47234]	3174530	city, village,...
Lugduni-Batavorum	Unknown	Unknown	Unknown	Unknown	None	Unknown
Lévis	Lévis	Quebec	Canada	[46.80326,-71.17793]	6325521	city, village,...
Lévis Québec	Lévis	Quebec	Canada	[46.80326,-71.17793]	6325521	city, village,...
M unchen	Unknown	Unknown	Unknown	Unknown	None	Unknown
Manassas Park, Virginia	City of Manassas Park	Virginia	United States	[38.784,-77.46971]	4771421	country, state, region,...
Manchester Eng	Manchester	England	United Kingdom	[53.48095,-2.23743]	2643123	city, village,...
Maplewood, New Jersey	Maplewood	New Jersey	United States	[40.73121,-74.27348]	5100854	city, village,...
Markham, Ontario	Markham	Ontario	Canada	[43.86682,-79.2663]	6066513	city, village,...
Medford, Massachusetts	Medford	Massachusetts	United States	[42.41843,-71.10616]	4943629	city, village,...
Mediolani	Unknown	Unknown	Unknown	Unknown	None	Unknown
Memphis	Memphis	Tennessee	United States	[35.14953,-90.04898]	4641239	city, village,...
Memphis, Tennessee	Memphis	Tennessee	United States	[35.14953,-90.04898]	4641239	city, village,...
Meriden, Connecticut	Meriden	Connecticut	United States	[41.53815,-72.80704]	4838524	city, village,...
Messina	Messina	Sicily	Italy	[38.19394,15.55256]	2524170	city, village,...
Metz	Metz	Lorraine	France	[49.11911,6.17269]	2994160	city, village,...
Mexico City	Mexico City	The Federal District	Mexico	[19.42847,-99.12766]	3530597	city, village,...
Meḳsiḳe	Mexico		Mexico	[23,-102]	3996063	country, state, region,...
Miami	Miami	Florida	United States	[25.77427,-80.19366]	4164138	city, village,...
Miami, FL	Miami	Florida	United States	[25.77427,-80.19366]	4164138	city, village,...
Middlebury, Vermont	Middlebury State Airport	Vermont	United States	[43.98541,-73.09643]	5238511	spot, building, farm
Middletown, CT	Middletown	Connecticut	United States	[41.56232,-72.65065]	4838633	city, village,...
Milledgeville, Georgia	Milledgeville	Georgia	United States	[33.08014,-83.2321]	4209448	city, village,...
Milwaukie, OR	Milwaukie	Oregon	United States	[45.44623,-122.63926]	5740900	city, village,...
Minneapolis/St Paul	Minneapolis-St. Paul-Bloomington	Minnesota	United States	[44.95751,-93.17848]	6955117	parks,area, ...
Minnetonka, MN	Minnetonka	Minnesota	United States	[44.9133,-93.50329]	5037784	city, village,...
Mobile	Mobile	Alabama	United States	[30.69436,-88.04305]	4076598	city, village,...
Modena	Modena	Emilia-Romagna	Italy	[44.64783,10.92539]	3173331	city, village,...
Monroe, ME	Monroe County	Missouri	United States	[39.49546,-92.00074]	4398864	country, state, region,...
Mons	Mons	Walloon	Belgium	[50.45413,3.95229]	2790869	city, village,...
Monstrolii	Unknown	Unknown	Unknown	Unknown	None	Unknown
Monticello, Il	Monticello	Illinois	United States	[40.02781,-88.5734]	4902567	city, village,...
Montpelier	Montpelier	Vermont	United States	[44.26006,-72.57539]	5238685	city, village,...
Montpelier, Vermont	Montpelier	Vermont	United States	[44.26006,-72.57539]	5238685	city, village,...
Montréal, Qué	Unknown	Unknown	Unknown	Unknown	None	Unknown
Málaga	Málaga	Andalusia	Spain	[36.72016,-4.42034]	2514256	city, village,...
Münster i W	Ulmer Münster	Baden-Württemberg	Germany	[48.39861,9.99249]	7909769	spot, building, farm
Münster iW	Unknown	Unknown	Unknown	Unknown	None	Unknown
Namur	Namur	Walloon	Belgium	[50.4669,4.86746]	2790471	city, village,...
Naples	Napoli	Campania	Italy	[40.85631,14.24641]	3172394	city, village,...
Needham, Massachusetts	Needham	Massachusetts	United States	[42.28343,-71.23283]	4945055	city, village,...
Neptune, New Jersey	Neptune City	New Jersey	United States	[40.20011,-74.02792]	5101687	city, village,...
New  York	New York City	New York	United States	[40.71427,-74.00597]	5128581	city, village,...
New Bedford, Massachusetts	New Bedford	Massachusetts	United States	[41.63622,-70.93421]	4945121	city, village,...
New Haven Connecticut	New Haven	Connecticut	United States	[41.30815,-72.92816]	4839366	city, village,...
New Milford, Connecticut	Milford	Connecticut	United States	[41.22232,-73.0565]	4838652	city, village,...
New Westminster, British Columbia	New Westminster	British Columbia	Canada	[49.20678,-122.91092]	6087844	city, village,...
New York ; London	London Terrace	New York	United States	[40.7475,-74.00306]	6342983	spot, building, farm
Newmarket	Newmarket		New Zealand	[-36.86667,174.78333]	2186243	country, state, region,...
Newton Abbot	Newton Abbot	England	United Kingdom	[50.52858,-3.61186]	2641557	city, village,...
Newtown, CT	Newtown	Connecticut	United States	[41.41398,-73.30345]	5280935	city, village,...
Niort	Niort	Poitou-Charentes	France	[46.32313,-0.45877]	2990355	city, village,...
Norman, Oklahoma	Norman	Oklahoma	United States	[35.22257,-97.43948]	4543762	city, village,...
Norwalk, CT	Norwalk	Connecticut	United States	[41.1176,-73.4079]	4839822	city, village,...
Norwood, Massachusetts	Norwood	Massachusetts	United States	[42.19454,-71.1995]	4945952	city, village,...
Novosibirsk	Novosibirsk	Novosibirsk	Russia	[55.0415,82.9346]	1496747	city, village,...
Nyu Yor	Unknown	Unknown	Unknown	Unknown	None	Unknown
Nyu-Yor	Unknown	Unknown	Unknown	Unknown	None	Unknown
Oberlin, Ohio	Oberlin	Ohio	United States	[41.29394,-82.21738]	5165445	city, village,...
Oklahoma City	Oklahoma City	Oklahoma	United States	[35.46756,-97.51643]	4544349	city, village,...
Oldenburg	Oldenburg	Lower Saxony	Germany	[53.14118,8.21467]	2857458	city, village,...
Olympia	Olympia	Washington	United States	[47.03787,-122.9007]	5805687	city, village,...
Olympia, Washington	Olympia	Washington	United States	[47.03787,-122.9007]	5805687	city, village,...
Omaha	Omaha	Nebraska	United States	[41.25861,-95.93779]	5074472	city, village,...
Ontario	Ontario	Ontario	Canada	[49.25014,-84.49983]	6093943	country, state, region,...
Ontario, Canada	Ontario	Ontario	Canada	[49.25014,-84.49983]	6093943	country, state, region,...
Orlando, Fl	Orlando	Florida	United States	[28.53834,-81.37924]	4167147	city, village,...
Orléans	New Orleans	Louisiana	United States	[29.95465,-90.07507]	4335045	city, village,...
Osceola, WI	Osceola	Wisconsin	United States	[45.32052,-92.70493]	5265824	city, village,...
Oslo	Oslo	Oslo	Norway	[59.91273,10.74609]	3143244	city, village,...
Oxford Eng	Oxford	England	United Kingdom	[51.75222,-1.25596]	2640729	city, village,...
Oxonium	Unknown	Unknown	Unknown	Unknown	None	Unknown
Paducah, Kentucky	Paducah	Kentucky	United States	[37.08339,-88.60005]	4048662	city, village,...
Paramus, New Jersey	Paramus	New Jersey	United States	[40.94454,-74.07542]	5102387	city, village,...
Park Ridge, NJ, USA	Park Ridge	New Jersey	United States	[41.0376,-74.0407]	5102400	city, village,...
Parkhill, Ontario	Parkhill Lake	Ontario	Canada	[51.32315,-88.70095]	6098545	stream, lake, ...
Parmae	Parma	Emilia-Romagna	Italy	[44.79935,10.32618]	3171457	city, village,...
Patavii	Unknown	Unknown	Unknown	Unknown	None	Unknown
Peachtree City, GA	Peachtree City	Georgia	United States	[33.39678,-84.59576]	4215110	city, village,...
Peking	Beijing	Beijing	China	[39.9075,116.39723]	1816670	city, village,...
Perugia	Perugia	Umbria	Italy	[43.1122,12.38878]	3171180	city, village,...
Pesth	Pest	Budapest	Hungary	[47.5,19.08333]	3046446	city, village,...
Peterborough, Ontario	Peterborough	Ontario	Canada	[44.30012,-78.31623]	6101645	city, village,...
Peterburg	Saint Petersburg	St.-Petersburg	Russia	[59.93863,30.31413]	498817	city, village,...
Petropoli	Petropoli	Loreto	Peru	[-4.34856,-70.03659]	3828904	city, village,...
Philadelphia Pennsylvania	Philadelphia	Pennsylvania	United States	[39.95233,-75.16379]	4560349	city, village,...
Phildelphia	Unknown	Unknown	Unknown	Unknown	None	Unknown
Phoenix	Phoenix	Arizona	United States	[33.44838,-112.07404]	5308655	city, village,...
Phoenix, AZ	Phoenix	Arizona	United States	[33.44838,-112.07404]	5308655	city, village,...
Pictou, Nova Scotia	Pictou	Nova Scotia	Canada	[45.50015,-62.58193]	6104222	country, state, region,...
Pittsburg, Pennsylvania	Pittsburgh	Pennsylvania	United States	[40.44062,-79.99589]	5206379	city, village,...
Pittsfield, Massachusetts	Pittsfield	Massachusetts	United States	[42.45008,-73.24538]	4947459	city, village,...
Plano, Texas	Plano	Texas	United States	[33.01984,-96.69889]	4719457	city, village,...
Poole	Poole	England	United Kingdom	[50.71667,-2]	2640101	city, village,...
Poole, Dorset	Unknown	Unknown	Unknown	Unknown	None	Unknown
Port Townsend, Washington	Port Townsend	Washington	United States	[48.11704,-122.76045]	5807239	city, village,...
Portsmouth	Portsmouth	Saint John	Dominica	[15.58333,-61.46667]	3575654	city, village,...
Posen	Poznań	Greater Poland Voivodeship	Poland	[52.40692,16.92993]	3088171	city, village,...
Potsdam	Potsdam	Brandenburg	Germany	[52.39886,13.06566]	2852458	city, village,...
Prague	Prague	Praha	Czechia	[50.08804,14.42076]	3067696	city, village,...
Prescott, Ontario	Prescott	Ontario	Canada	[44.71681,-75.51604]	6113027	city, village,...
Pretoria	Pretoria	Gauteng	South Africa	[-25.74486,28.18783]	964137	city, village,...
Quedlinburg	Quedlinburg	Saxony-Anhalt	Germany	[51.78843,11.15006]	2851465	city, village,...
Quito	Quito	Pichincha	Ecuador	[-0.22985,-78.52495]	3652462	city, village,...
RICHMOND, United Kingdom	Richmond	England	United Kingdom	[51.46005,-0.30075]	2639389	city, village,...
Raleigh North Carolina	Raleigh	North Carolina	United States	[35.7721,-78.63861]	4487042	city, village,...
Rangoon	Yangon	Yangon	Myanmar [Burma]	[16.80528,96.15611]	1298824	city, village,...
Reading, MA	North Reading	Massachusetts	United States	[42.57509,-71.07867]	4945734	city, village,...
Redwood City, California	Redwood City	California	United States	[37.48522,-122.23635]	5386834	city, village,...
Reinbek bei Hamburg	Unknown	Unknown	Unknown	Unknown	None	Unknown
Richmond, Indiana	Richmond	Indiana	United States	[39.82894,-84.89024]	4263681	city, village,...
Ridgewood, New Jersey	Ridgewood	New Jersey	United States	[40.97926,-74.11653]	5103269	city, village,...
Riga	Riga	Rīga	Latvia	[56.946,24.10589]	456172	city, village,...
River Forest, Illinois	River Forest	Illinois	United States	[41.89781,-87.81395]	4907637	city, village,...
Rochelle Park, New Jersey	Rochelle Park	New Jersey	United States	[40.90719,-74.07941]	7258563	city, village,...
Rochester New York	Rochester	New York	United States	[43.15478,-77.61556]	5134086	city, village,...
Rockport, Massachusetts	Rockport	Massachusetts	United States	[42.65565,-70.62032]	4948936	city, village,...
Roseville, CA	Roseville	California	United States	[38.75212,-121.28801]	5388881	city, village,...
Roseville, California	Roseville	California	United States	[38.75212,-121.28801]	5388881	city, village,...
S Peterburg	Saint Petersburg	St.-Petersburg	Russia	[59.93863,30.31413]	498817	city, village,...
S l	Unknown	Unknown	Unknown	Unknown	None	Unknown
Sag Harbor, New York	Sag Harbor	New York	United States	[40.99788,-72.29258]	5134800	city, village,...
Saint Louis, Missouri	St. Louis	Missouri	United States	[38.62727,-90.19789]	4407066	city, village,...
Saint Paul	Saint-Paul	Réunion	Réunion	[-21.00963,55.27071]	935221	city, village,...
Sainte-Foy	Sainte-Foy-la-Grande	Aquitaine	France	[44.83333,0.21667]	2980589	city, village,...
Salem Massachusetts	Salem	Massachusetts	United States	[42.51954,-70.89672]	4950065	city, village,...
Salt Lake City, UT	Salt Lake City	Utah	United States	[40.76078,-111.89105]	5780993	city, village,...
San Antonio	San Antonio	Texas	United States	[29.42412,-98.49363]	4726206	city, village,...
San Bernardino, CA	San Bernardino	California	United States	[34.10834,-117.28977]	5391710	city, village,...
San Bernardino, California	San Bernardino	California	United States	[34.10834,-117.28977]	5391710	city, village,...
San Jose	San Jose	California	United States	[37.33939,-121.89496]	5392171	city, village,...
San Jose, CA	San Jose	California	United States	[37.33939,-121.89496]	5392171	city, village,...
San Jose, CAL	San Jose	California	United States	[37.33939,-121.89496]	5392171	city, village,...
San Luis Obispo, California	San Luis Obispo	California	United States	[35.28275,-120.65962]	5392323	city, village,...
San Ramon, CA	San Ramón	Canelones	Uruguay	[-34.3,-55.96667]	3440596	city, village,...
Santa Ana, California	Santa Ana	California	United States	[33.74557,-117.86783]	5392900	city, village,...
Santa Fe	Santa Fe de la Vera Cruz	Santa Fe	Argentina	[-31.63333,-60.7]	3836277	city, village,...
Santa Rosa, CA	Santa Rosa	California	United States	[38.44047,-122.71443]	5393287	city, village,...
Sausalito, California	Sausalito	California	United States	[37.85909,-122.48525]	5393611	city, village,...
Savannah, Georgia	Savannah	Georgia	United States	[32.08354,-81.09983]	4221552	city, village,...
Scarborough, Ontario	Scarborough	Ontario	Canada	[43.75583,-79.23083]	6141895	city, village,...
Schaffhausen	Schaffhausen	Schaffhausen	Switzerland	[47.69732,8.63493]	2658761	city, village,...
Schenectady	Schenectady	New York	United States	[42.81424,-73.93957]	5136454	city, village,...
Scottsdale, Arizona	Scottsdale	Arizona	United States	[33.50921,-111.89903]	5313457	city, village,...
Seaforth, Ontario	Seaforth	Ontario	Canada	[43.55009,-81.39976]	6142917	city, village,...
Shang-hai	Shanghai	Shanghai Shi	China	[31.22222,121.45806]	1796236	city, village,...
Sheffield, England	Sheffield	England	United Kingdom	[53.38297,-1.4659]	2638077	city, village,...
Shippensburg, PA	Shippensburg	Pennsylvania	United States	[40.05065,-77.52026]	5212038	city, village,...
Shiḳago	Chicago	Illinois	United States	[41.85003,-87.65005]	4887398	city, village,...
Siena	Siena	Tuscany	Italy	[43.32215,11.3259]	3166548	city, village,...
Skokie, Illinois	Skokie	Illinois	United States	[42.03336,-87.73339]	4911600	city, village,...
Somerville, Massachusetts	Somerville	Massachusetts	United States	[42.3876,-71.0995]	4951257	city, village,...
South Bend, Indiana	South Bend	Indiana	United States	[41.68338,-86.25001]	4926563	city, village,...
South Brunswick	Brunswick Heads	New South Wales	Australia	[-28.54154,153.5481]	2173738	city, village,...
South Brunswick New Jersey	Township of South Brunswick	New Jersey	United States	[40.38407,-74.52543]	5104818	country, state, region,...
South Royalton, Vermont	South Royalton	Vermont	United States	[43.8209,-72.52121]	5241330	city, village,...
South Yarmouth, Ma	South Yarmouth	Massachusetts	United States	[41.66678,-70.18474]	4951579	city, village,...
Springfield, Ohio	Springfield	Ohio	United States	[39.92423,-83.80882]	4525353	city, village,...
St Catharines, Ontario	St. Catharines	Ontario	Canada	[43.17126,-79.24267]	6155721	city, village,...
St Hyacinthe, Québec	Saint-Hyacinthe	Quebec	Canada	[45.63076,-72.95699]	6138374	city, village,...
St John's, Newfoundland	St. John's	Newfoundland and Labrador	Canada	[47.56494,-52.70931]	6324733	city, village,...
St Paul, Minn, USA	Unknown	Unknown	Unknown	Unknown	None	Unknown
St Thomas, Ontario	St. Thomas	Ontario	Canada	[42.77361,-81.18038]	6158357	city, village,...
Stanford University, California	Stanford University	California	United States	[37.42716,-122.17024]	5398590	spot, building, farm
Stockholm, Sweden	Stockholm	Stockholm	Sweden	[59.33258,18.0649]	2673730	city, village,...
Stroud	Stroud	England	United Kingdom	[51.75,-2.2]	2636616	city, village,...
São Paulo, SP	São Paolo	São Paulo	Brazil	[-23.5475,-46.63611]	3448439	city, village,...
Tallahassee, FL	Tallahassee	Florida	United States	[30.43826,-84.28073]	4174715	city, village,...
Te Amsterdam	Amsterdam	North Holland	Netherlands	[52.37403,4.88969]	2759794	city, village,...
Tel Aviv	Tel Aviv	Tel Aviv	Israel	[32.08088,34.78057]	293397	city, village,...
Tiburon, California	Tiburon	California	United States	[37.87354,-122.45664]	5402535	city, village,...
Tokio	Tokyo	Tōkyō	Japan	[35.6895,139.69171]	1850147	city, village,...
Tokyo, Japan	Tokyo	Tōkyō	Japan	[35.6895,139.69171]	1850147	city, village,...
Toledo	Toledo	Castille-La Mancha	Spain	[39.8581,-4.02263]	2510409	city, village,...
Topsfield, Massachusetts	Topsfield	Massachusetts	United States	[42.63759,-70.9495]	4953127	city, village,...
Toronto, ON	Toronto	Ontario	Canada	[43.70011,-79.4163]	6167865	city, village,...
Tours France	Tours	Centre	France	[47.38333,0.68333]	2972191	city, village,...
Tōkyō	Tokyo	Tōkyō	Japan	[35.6895,139.69171]	1850147	city, village,...
Trajecti ad Rhenum	Unknown	Unknown	Unknown	Unknown	None	Unknown
Trier	Trier	Rheinland-Pfalz	Germany	[49.75565,6.63935]	2821164	city, village,...
Trieste	Trieste	Friuli Venezia Giulia	Italy	[45.64325,13.7903]	3165185	city, village,...
Trois-Rivières, Québec	Trois-Rivières	Quebec	Canada	[46.34515,-72.5477]	6169141	city, village,...
Troyes	Troyes	Champagne-Ardenne	France	[48.3,4.08333]	2971549	city, village,...
Turin	Torino	Piedmont	Italy	[45.07049,7.68682]	3165524	city, village,...
Unity, Maine	Unity Pond	Maine	United States	[44.64597,-69.33009]	4981513	stream, lake, ...
University Park	Penn State University Park Airport	Pennsylvania	United States	[40.84867,-77.84917]	5216775	spot, building, farm
Upsaliae	Unknown	Unknown	Unknown	Unknown	None	Unknown
Urbana-Champaign, Illinois	Urbana	Illinois	United States	[40.11059,-88.20727]	4914570	city, village,...
V Ljubljani	Unknown	Unknown	Unknown	Unknown	None	Unknown
Valladolid	Valladolid	Castille and León	Spain	[41.65518,-4.72372]	3106672	city, village,...
Valparaiso	Valparaíso	Valparaíso	Chile	[-33.03932,-71.62725]	3868626	city, village,...
Vancouver, British Columbia	Vancouver	British Columbia	Canada	[49.24966,-123.11934]	6173331	city, village,...
Venetia	Venezia	Veneto	Italy	[45.43713,12.33265]	3164603	city, village,...
Venice	Mestre	Veneto	Italy	[45.47152,12.24017]	3173529	city, village,...
Verona	Verona	Veneto	Italy	[45.4299,10.98444]	3164527	city, village,...
Viennae	Unknown	Unknown	Unknown	Unknown	None	Unknown
Vienne	Vienna	Vienna	Austria	[48.20849,16.37208]	2761369	city, village,...
Vineland, New Jersey	Vineland	New Jersey	United States	[39.48623,-75.02573]	4504621	city, village,...
Virginia Beach, VA	Virginia Beach	Virginia	United States	[36.85293,-75.97799]	4791259	city, village,...
W Praze	Unknown	Unknown	Unknown	Unknown	None	Unknown
Wallingford, Oxfordshire, United Kingdom	Wallingford	England	United Kingdom	[51.59982,-1.1248]	2634869	city, village,...
Walnut Creek, California	Walnut Creek	California	United States	[37.90631,-122.06496]	5406990	city, village,...
Watford	Watford	England	United Kingdom	[51.65531,-0.39602]	2634677	city, village,...
Waukesha, Wisconsin	Waukesha	Wisconsin	United States	[43.01168,-88.23148]	5278052	city, village,...
We Lwowie	Unknown	Unknown	Unknown	Unknown	None	Unknown
Wein	Mān Wein	Kachin	Myanmar [Burma]	[24.08975,97.23628]	1310549	city, village,...
Welland, Ontario	Welland	Ontario	Canada	[42.98342,-79.24958]	6177869	city, village,...
Wellington, New Zealand	Wellington	Wellington	New Zealand	[-41.28664,174.77557]	2179537	city, village,...
West Conshohocken, PA	West Conshohocken	Pennsylvania	United States	[40.06983,-75.3163]	5218652	city, village,...
West Medford, Massachusetts	West Medford	Massachusetts	United States	[42.42147,-71.13325]	4955013	city, village,...
West Monroe, LA	West Monroe	Louisiana	United States	[32.51848,-92.14764]	4345850	city, village,...
Westwood, New Jersey	Westwood	New Jersey	United States	[40.99121,-74.03264]	5106351	city, village,...
White Hall, Virginia	White Hall	Virginia	United States	[39.29121,-78.14806]	4793246	city, village,...
White River Junction, Vermont	White River Junction	Vermont	United States	[43.64896,-72.31926]	5242889	city, village,...
Wien und Leipzig	Unknown	Unknown	Unknown	Unknown	None	Unknown
Wien, Austria	Vienna	Vienna	Austria	[48.20849,16.37208]	2761369	city, village,...
Wilkes-Barre, Pennsylvania	Wilkes-Barre	Pennsylvania	United States	[41.24591,-75.88131]	5219488	city, village,...
Williamsport, Pennsylvania	Williamsport	Pennsylvania	United States	[41.24119,-77.00108]	5219585	city, village,...
Wilmette, Illinois	Wilmette	Illinois	United States	[42.07225,-87.72284]	4916732	city, village,...
Wilmington	Wilmington	Delaware	United States	[39.74595,-75.54659]	4145381	city, village,...
Wilmington, North Carolina	Wilmington	North Carolina	United States	[34.22573,-77.94471]	4499379	city, village,...
Winona, Minnesota	Winona	Minnesota	United States	[44.04996,-91.63932]	5053156	city, village,...
Winston-Salem, North Carolina	Winston-Salem	North Carolina	United States	[36.09986,-80.24422]	4499612	city, village,...
Woodbridge	Woodbridge	Tasmania	Australia	[-43.15956,147.23744]	2143114	city, village,...
Woodbridge, Connecticut	Woodbridge	Connecticut	United States	[41.3526,-73.00844]	4846022	city, village,...
Woodbury, Minnesota	Woodbury	Minnesota	United States	[44.92386,-92.95938]	5053358	city, village,...
Worcester Massachusetts	Worcester	Massachusetts	United States	[42.26259,-71.80229]	4956184	city, village,...
Worthington, Ohio	Worthington	Ohio	United States	[40.09312,-83.01796]	5177396	city, village,...
Wrexham	Wrexham	Wales	United Kingdom	[53.04664,-2.99132]	2633485	city, village,...
Würzburg	Würzburg	Bavaria	Germany	[49.79391,9.95121]	2805615	city, village,...
York Beach, Maine	York Beach	Maine	United States	[43.17148,-70.60894]	4983611	city, village,...
York, Pennsylvania	York	Pennsylvania	United States	[39.9626,-76.72774]	4562407	city, village,...
s l	The Hague	South Holland	Netherlands	[52.07667,4.29861]	2747373	city, village,...
Ḳiyeṿ	Kiev	Kyiv City	Ukraine	[50.45466,30.5238]	703448	city, village,...
